{"type":"FeatureCollection","name":"dss_buckingham_canal","source":"OpenCity resource 1bb30ede-f309-4c16-8ab1-3c1fd211697f","description":"Chennai basin DSS: Buckingham canal","features":[{"type":"Feature","geometry":{"type":"LineString","coordinates":[[80.317318,13.232564],[80.317609,13.233007],[80.317597,13.235205],[80.317474,13.242254],[80.317596,13.245524],[80.31806,13.246954],[80.31886,13.248777],[80.320661,13.251487],[80.32166,13.253259],[80.322805,13.255829],[80.323735,13.25718],[80.323995,13.258176],[80.324762,13.259269],[80.326115,13.262177],[80.326667,13.264031],[80.326792,13.266058],[80.326793,13.26691],[80.32692,13.267782],[80.3272,13.268898],[80.327488,13.270182],[80.327241,13.271328],[80.326327,13.273919],[80.325898,13.275277],[80.325739,13.276136],[80.325838,13.276762],[80.32597,13.277202],[80.326411,13.2782],[80.327067,13.280018],[80.327765,13.281208],[80.328163,13.281657],[80.328852,13.282448],[80.329173,13.282884],[80.329473,13.283625],[80.329966,13.286557],[80.330123,13.288338],[80.330266,13.290864],[80.330158,13.293923],[80.330054,13.296889],[80.329952,13.299235],[80.329942,13.300798],[80.329807,13.3014],[80.329265,13.30277],[80.32825,13.305417],[80.327064,13.308391]]},"properties":{"id":"1","subbasin":"Kosasthalayar","modelling":"Hydraulic Channel Routing","length_km":"8.839","slno":"1","type":"Macro Drain","_folder":"chennaidss_gis_drainage_network_chennai_basin_buckingham_canal_withlabel"}},{"type":"Feature","geometry":{"type":"LineString","coordinates":[[80.235243,12.780705],[80.234662,12.779411],[80.234002,12.776092],[80.233208,12.772558],[80.232863,12.771131],[80.232791,12.770793],[80.232212,12.767747],[80.232093,12.767122],[80.232026,12.766772],[80.231706,12.765622],[80.231397,12.7642],[80.231028,12.761563],[80.230911,12.76086],[80.230796,12.760478],[80.230843,12.759975],[80.23072,12.759277],[80.230671,12.759004],[80.230642,12.758616],[80.230595,12.758277],[80.23048,12.757682],[80.230321,12.75593],[80.23019,12.754604],[80.229843,12.751266],[80.229371,12.747026],[80.229336,12.746707],[80.228857,12.744916],[80.228102,12.743031],[80.2274,12.74156],[80.226967,12.740844],[80.226176,12.738826],[80.22511,12.73693],[80.224061,12.735532],[80.223421,12.734472],[80.222847,12.73326],[80.222314,12.732199],[80.22163,12.730801],[80.222101,12.730493],[80.220752,12.727798],[80.219387,12.725048],[80.217759,12.721596],[80.215835,12.717448],[80.215397,12.716597],[80.212745,12.711469],[80.2112,12.708333],[80.210701,12.707229],[80.21007,12.705885],[80.209617,12.704963],[80.208406,12.702499],[80.207061,12.699698],[80.20536,12.696093],[80.204418,12.694096],[80.203653,12.692481],[80.203005,12.691127],[80.202785,12.690575],[80.202539,12.689775],[80.202225,12.688804],[80.201887,12.687189],[80.20157,12.685636],[80.201116,12.683281],[80.200626,12.680752],[80.200178,12.678858],[80.200129,12.67873],[80.200085,12.678613],[80.200085,12.678352],[80.200019,12.678081],[80.199711,12.676807],[80.199593,12.676228],[80.199489,12.675617],[80.199404,12.675119],[80.199022,12.673265],[80.198727,12.671733],[80.198515,12.670622],[80.198256,12.669355],[80.198037,12.668366],[80.1977,12.666845],[80.197293,12.665002],[80.197153,12.664319],[80.19705,12.663821],[80.196759,12.662408],[80.196481,12.66106],[80.19624,12.65989],[80.19608,12.659069],[80.19607,12.65892],[80.196139,12.658564],[80.196079,12.658426],[80.195907,12.65808],[80.195547,12.656432],[80.195034,12.654083],[80.194255,12.650514],[80.193629,12.64765],[80.19313,12.645522],[80.192947,12.644764],[80.192428,12.642512],[80.191965,12.640367],[80.191423,12.637946],[80.191032,12.636331],[80.190227,12.633529],[80.189583,12.631507],[80.188861,12.629228],[80.187607,12.62521],[80.187176,12.623843],[80.18683,12.622748],[80.186609,12.622],[80.186404,12.621298],[80.186261,12.620806],[80.18618,12.619657],[80.186179,12.61889],[80.186396,12.617975],[80.186574,12.616453],[80.186807,12.615091],[80.18666,12.614215],[80.186125,12.613168],[80.185846,12.612169],[80.185723,12.611868],[80.185737,12.611445],[80.186067,12.611001],[80.186295,12.610278],[80.186336,12.609917],[80.186141,12.609413],[80.185936,12.609131],[80.184088,12.607488],[80.182897,12.606352],[80.182214,12.60564],[80.181184,12.603857],[80.179844,12.601375],[80.179511,12.600752],[80.179115,12.599737],[80.178729,12.598737],[80.177918,12.596097],[80.177413,12.594523],[80.17659,12.591943],[80.176441,12.59148],[80.17622,12.590843],[80.175979,12.590324],[80.175586,12.588797],[80.174961,12.586915],[80.173386,12.584712],[80.17243,12.58343]]},"properties":{"id":"2","subbasin":"Kovalam","modelling":"Hydraulic Channel Routing","length_km":"23.271","slno":"2","type":"Macro Drain","_folder":"chennaidss_gis_drainage_network_chennai_basin_buckingham_canal_withlabel"}},{"type":"Feature","geometry":{"type":"MultiLineString","coordinates":[[[80.249199,13.018468],[80.249695,13.018909],[80.250934,13.01958],[80.251607,13.020359],[80.252322,13.02146],[80.252644,13.0219],[80.25343,13.022653],[80.254765,13.023053],[80.256069,13.023669],[80.257444,13.024387],[80.258554,13.024724],[80.25908,13.025322],[80.259653,13.02588],[80.260102,13.026791],[80.260959,13.028753],[80.261349,13.030164],[80.261865,13.031073],[80.262714,13.03191],[80.263694,13.032745],[80.264815,13.033695],[80.265608,13.033882],[80.266272,13.034235],[80.266987,13.034889],[80.267343,13.035442],[80.267973,13.035861],[80.268711,13.036281],[80.269116,13.03723],[80.269485,13.038208],[80.269325,13.039096],[80.269625,13.039824],[80.270098,13.040515],[80.270565,13.04119],[80.271144,13.04143],[80.27169,13.041898],[80.272441,13.042069],[80.273643,13.041836],[80.274321,13.041794],[80.275348,13.041526],[80.275973,13.042039],[80.276138,13.043192],[80.27673,13.044752],[80.277365,13.046872],[80.278138,13.049541],[80.279729,13.051986],[80.280279,13.053024],[80.280364,13.053383],[80.280082,13.052734],[80.279252,13.051382]],[[80.280507,13.053989],[80.280487,13.053666],[80.280364,13.053383],[80.280507,13.053989],[80.280544,13.054144],[80.280548,13.054642],[80.280507,13.053989]],[[80.282516,13.068964],[80.2825,13.068164],[80.282449,13.067622],[80.282388,13.067121],[80.282327,13.066752],[80.282046,13.066342],[80.281256,13.065399],[80.280738,13.064109],[80.280595,13.062994],[80.280197,13.060149],[80.280493,13.057636],[80.280483,13.057759]],[[80.280496,13.057607],[80.280493,13.057636],[80.280496,13.057614],[80.280496,13.057607],[80.280448,13.056192],[80.280553,13.055072],[80.280568,13.056708],[80.280496,13.057607]],[[80.280553,13.055072],[80.280566,13.054924],[80.280548,13.054642],[80.280553,13.055072]]]},"properties":{"id":"3","subbasin":"Cooum/Adyar","modelling":"Hydraulic Channel Routing","length_km":"8.138","slno":"3","type":"Macro Drain","_folder":"chennaidss_gis_drainage_network_chennai_basin_buckingham_canal_withlabel"}},{"type":"Feature","geometry":{"type":"MultiLineString","coordinates":[[[80.281173,13.147246],[80.278426,13.141507],[80.277846,13.140114],[80.272227,13.120379],[80.270001,13.1108],[80.272267,13.106551],[80.273112,13.103281],[80.273788,13.100419],[80.274044,13.098538],[80.274056,13.094283],[80.273814,13.0915],[80.273993,13.087492],[80.274927,13.082053],[80.275015,13.080335],[80.274976,13.079295]],[[80.281354,13.147097],[80.283402,13.151771],[80.284567,13.154046],[80.286782,13.158898],[80.288465,13.162753],[80.288882,13.163396],[80.289825,13.171333],[80.290064,13.173879],[80.290799,13.175076],[80.294623,13.181227],[80.29646,13.184021],[80.298648,13.185382],[80.299579,13.186414],[80.301698,13.189503],[80.302732,13.19122],[80.304557,13.195186],[80.306741,13.200376],[80.308479,13.202471],[80.309737,13.204158],[80.311955,13.208591],[80.313625,13.212212],[80.314973,13.214715],[80.31696,13.217606],[80.317705,13.218934],[80.318314,13.220204],[80.318332,13.221962]]]},"properties":{"id":"4","subbasin":"Kosasthalayar/Cooum","modelling":"Hydraulic Channel Routing","length_km":"17.16","slno":"4","type":"Macro Drain","_folder":"chennaidss_gis_drainage_network_chennai_basin_buckingham_canal_withlabel"}},{"type":"Feature","geometry":{"type":"MultiLineString","coordinates":[[[80.242883,12.922004],[80.243001,12.922639],[80.242982,12.922592],[80.241963,12.917509],[80.241945,12.916701],[80.241478,12.915282],[80.239684,12.905906],[80.238483,12.899956],[80.238238,12.898412],[80.238236,12.89723],[80.238723,12.895141],[80.239789,12.887496],[80.240507,12.882816],[80.24053,12.881226],[80.240557,12.879335],[80.24106,12.875724],[80.241359,12.87424],[80.241428,12.873192],[80.241383,12.872389],[80.239738,12.869845],[80.238441,12.867458],[80.238225,12.866712],[80.237514,12.863648],[80.237049,12.861177],[80.23671,12.85937],[80.235986,12.857047],[80.23561,12.855926],[80.235169,12.854777],[80.234953,12.853975],[80.234863,12.853419],[80.234955,12.849166],[80.235,12.847529],[80.23515,12.845881],[80.235238,12.842194],[80.236134,12.839726],[80.237183,12.836846],[80.237584,12.835742],[80.237622,12.834937],[80.237793,12.833921],[80.238039,12.831422],[80.238069,12.83021],[80.238014,12.829769],[80.237941,12.829179],[80.237689,12.827985],[80.237446,12.826471],[80.238039,12.822874],[80.238106,12.820816],[80.238122,12.820158],[80.23838,12.818811],[80.238889,12.817417],[80.239204,12.816339],[80.239636,12.815285],[80.240124,12.813742],[80.240733,12.810831],[80.241183,12.807878],[80.24102,12.804753]],[[80.243283,12.923332],[80.243001,12.922639],[80.243188,12.923649],[80.244961,12.931477],[80.247085,12.942125],[80.248636,12.951925],[80.252741,12.972939],[80.25387,12.979778],[80.253502,12.981623],[80.251918,12.988322],[80.251858,12.988554],[80.250159,12.995079],[80.250159,12.995079]],[[80.24892,13.018996],[80.248525,13.018121],[80.248355,13.014559],[80.248115,13.012794],[80.248088,13.012222],[80.248151,13.011791],[80.248078,13.008064],[80.247859,13.004856],[80.247836,13.004127],[80.24832,13.002155],[80.249444,12.997659],[80.250159,12.995079],[80.250784,12.992825],[80.251807,12.988863],[80.251858,12.988554],[80.252148,12.986777],[80.253127,12.982877]]]},"properties":{"id":"5","subbasin":"Adyar/Kovalam","modelling":"Hydraulic Channel Routing","length_km":"25.759","slno":"5","type":"Macro Drain","_folder":"chennaidss_gis_drainage_network_chennai_basin_buckingham_canal_withlabel"}}]}