{"type":"FeatureCollection","name":"dss_krishna_canal","source":"OpenCity resource b5264c56-9c1a-49e3-9f7d-eb8f9b4fb414","description":"Chennai basin DSS: Krishna water canal","features":[{"type":"Feature","geometry":{"type":"MultiLineString","coordinates":[[[79.867492,13.211878],[79.865934,13.21358],[79.861947,13.217358],[79.861332,13.217969],[79.861228,13.218428],[79.861352,13.219219],[79.861707,13.221439],[79.861546,13.222494],[79.860452,13.226015],[79.860122,13.22768],[79.860335,13.229182],[79.860832,13.231884],[79.861141,13.23311],[79.86141,13.233628],[79.861931,13.235009],[79.862563,13.237999],[79.863285,13.238613],[79.864344,13.239501],[79.86611,13.241218],[79.86868,13.243535],[79.870921,13.245591],[79.873461,13.2479],[79.875007,13.248115],[79.878401,13.248252],[79.882967,13.248395],[79.886581,13.248511],[79.890884,13.24858],[79.895349,13.248355],[79.898334,13.248181],[79.89993,13.248518],[79.902575,13.248939],[79.908094,13.250773],[79.911835,13.251995],[79.9142,13.252515],[79.914402,13.252613],[79.914672,13.252864],[79.917546,13.256037],[79.919662,13.258387],[79.920472,13.259217],[79.924134,13.261667],[79.924637,13.262215],[79.92514,13.26305],[79.925342,13.263733],[79.925481,13.263899],[79.926705,13.265462],[79.926792,13.265728],[79.92774,13.26701],[79.928715,13.268688],[79.928853,13.268911],[79.929806,13.270667]],[[79.929775,13.270636],[79.932605,13.275938],[79.932615,13.276993],[79.931968,13.278545],[79.931132,13.279982],[79.92461,13.283063],[79.922497,13.28371],[79.913645,13.283658],[79.910369,13.28373],[79.910106,13.283928],[79.903562,13.288763],[79.900741,13.291046],[79.899745,13.295648],[79.899059,13.299224],[79.899094,13.301278],[79.899207,13.308294],[79.899301,13.310248],[79.899828,13.316083],[79.902135,13.324207],[79.903047,13.325409],[79.903207,13.325581],[79.904594,13.327258],[79.905213,13.328043],[79.907205,13.33039],[79.910737,13.33406],[79.913182,13.335772],[79.913407,13.33587],[79.915612,13.336123],[79.915654,13.336125],[79.91651,13.336193],[79.918677,13.336379],[79.919273,13.336526],[79.920064,13.337073],[79.920306,13.337644],[79.92034,13.338297],[79.920207,13.339851],[79.919963,13.343994],[79.917924,13.348337],[79.916397,13.351541],[79.916358,13.351826],[79.917529,13.356826],[79.917954,13.3584],[79.918225,13.35877],[79.918581,13.358909],[79.922025,13.359788]]]},"properties":{"id":"1","subbasin":"Kosasthalayar","modelling":"Hydraulic Channel Routing","length_km":"26","slno":"1","type":"Supply / Surplus Channel","_folder":"chennaidss_gis_drainage_network_chennai_basin_krishna_water_canal_withlabel"}}]}