{"type":"FeatureCollection","name":"flood_prone_locations","source":"OpenCity resource 00fb1229-dcfd-4f59-813f-885e0c629add","description":"BBMP flood-prone locations (70 points)","features":[{"type":"Feature","geometry":{"type":"Point","coordinates":[77.57602,13.048408]},"properties":{"_folder":"flood_prone_locations"}},{"type":"Feature","geometry":{"type":"Point","coordinates":[77.57468,12.993629]},"properties":{"_folder":"flood_prone_locations"}},{"type":"Feature","geometry":{"type":"Point","coordinates":[77.558617,13.036299]},"properties":{"_folder":"flood_prone_locations"}},{"type":"Feature","geometry":{"type":"Point","coordinates":[77.555646,12.979209]},"properties":{"_folder":"flood_prone_locations"}},{"type":"Feature","geometry":{"type":"Point","coordinates":[77.564464,12.979452]},"properties":{"_folder":"flood_prone_locations"}},{"type":"Feature","geometry":{"type":"Point","coordinates":[77.568083,12.968746]},"properties":{"_folder":"flood_prone_locations"}},{"type":"Feature","geometry":{"type":"Point","coordinates":[77.571703,12.97424]},"properties":{"_folder":"flood_prone_locations"}},{"type":"Feature","geometry":{"type":"Point","coordinates":[77.527091,12.988683]},"properties":{"_folder":"flood_prone_locations"}},{"type":"Feature","geometry":{"type":"Point","coordinates":[77.577829,12.987788]},"properties":{"_folder":"flood_prone_locations"}},{"type":"Feature","geometry":{"type":"Point","coordinates":[77.56893,12.982687]},"properties":{"_folder":"flood_prone_locations"}},{"type":"Feature","geometry":{"type":"Point","coordinates":[77.583793,13.016991]},"properties":{"_folder":"flood_prone_locations"}},{"type":"Feature","geometry":{"type":"Point","coordinates":[77.574868,12.984507]},"properties":{"_folder":"flood_prone_locations"}},{"type":"Feature","geometry":{"type":"Point","coordinates":[77.550679,12.965588]},"properties":{"_folder":"flood_prone_locations"}},{"type":"Feature","geometry":{"type":"Point","coordinates":[77.549606,12.964563]},"properties":{"_folder":"flood_prone_locations"}},{"type":"Feature","geometry":{"type":"Point","coordinates":[77.565447,12.966685]},"properties":{"_folder":"flood_prone_locations"}},{"type":"Feature","geometry":{"type":"Point","coordinates":[77.584138,12.965265]},"properties":{"_folder":"flood_prone_locations"}},{"type":"Feature","geometry":{"type":"Point","coordinates":[77.589531,12.929768]},"properties":{"_folder":"flood_prone_locations"}},{"type":"Feature","geometry":{"type":"Point","coordinates":[77.598476,12.929943]},"properties":{"_folder":"flood_prone_locations"}},{"type":"Feature","geometry":{"type":"Point","coordinates":[77.597177,12.948034]},"properties":{"_folder":"flood_prone_locations"}},{"type":"Feature","geometry":{"type":"Point","coordinates":[77.593107,12.946265]},"properties":{"_folder":"flood_prone_locations"}},{"type":"Feature","geometry":{"type":"Point","coordinates":[77.588436,12.915301]},"properties":{"_folder":"flood_prone_locations"}},{"type":"Feature","geometry":{"type":"Point","coordinates":[77.602199,12.925853]},"properties":{"_folder":"flood_prone_locations"}},{"type":"Feature","geometry":{"type":"Point","coordinates":[77.63082,12.938392]},"properties":{"_folder":"flood_prone_locations"}},{"type":"Feature","geometry":{"type":"Point","coordinates":[77.627974,12.924817]},"properties":{"_folder":"flood_prone_locations"}},{"type":"Feature","geometry":{"type":"Point","coordinates":[77.549051,12.97201]},"properties":{"_folder":"flood_prone_locations"}},{"type":"Feature","geometry":{"type":"Point","coordinates":[77.539729,12.956771]},"properties":{"_folder":"flood_prone_locations"}},{"type":"Feature","geometry":{"type":"Point","coordinates":[77.592459,12.927233]},"properties":{"_folder":"flood_prone_locations"}},{"type":"Feature","geometry":{"type":"Point","coordinates":[77.620147,12.948554]},"properties":{"_folder":"flood_prone_locations"}},{"type":"Feature","geometry":{"type":"Point","coordinates":[77.593239,12.954259]},"properties":{"_folder":"flood_prone_locations"}},{"type":"Feature","geometry":{"type":"Point","coordinates":[77.560866,12.933396]},"properties":{"_folder":"flood_prone_locations"}},{"type":"Feature","geometry":{"type":"Point","coordinates":[77.554778,12.935582]},"properties":{"_folder":"flood_prone_locations"}},{"type":"Feature","geometry":{"type":"Point","coordinates":[77.592032,12.955464]},"properties":{"_folder":"flood_prone_locations"}},{"type":"Feature","geometry":{"type":"Point","coordinates":[77.55151,12.974491]},"properties":{"_folder":"flood_prone_locations"}},{"type":"Feature","geometry":{"type":"Point","coordinates":[77.537898,12.962782]},"properties":{"_folder":"flood_prone_locations"}},{"type":"Feature","geometry":{"type":"Point","coordinates":[77.541289,12.952727]},"properties":{"_folder":"flood_prone_locations"}},{"type":"Feature","geometry":{"type":"Point","coordinates":[77.555149,13.034809]},"properties":{"_folder":"flood_prone_locations"}},{"type":"Feature","geometry":{"type":"Point","coordinates":[77.523011,12.921671]},"properties":{"_folder":"flood_prone_locations"}},{"type":"Feature","geometry":{"type":"Point","coordinates":[77.522042,12.992806]},"properties":{"_folder":"flood_prone_locations"}},{"type":"Feature","geometry":{"type":"Point","coordinates":[77.550377,13.023777]},"properties":{"_folder":"flood_prone_locations"}},{"type":"Feature","geometry":{"type":"Point","coordinates":[77.519661,12.907736]},"properties":{"_folder":"flood_prone_locations"}},{"type":"Feature","geometry":{"type":"Point","coordinates":[77.524762,12.941093]},"properties":{"_folder":"flood_prone_locations"}},{"type":"Feature","geometry":{"type":"Point","coordinates":[77.482736,12.898912]},"properties":{"_folder":"flood_prone_locations"}},{"type":"Feature","geometry":{"type":"Point","coordinates":[77.676207,13.012097]},"properties":{"_folder":"flood_prone_locations"}},{"type":"Feature","geometry":{"type":"Point","coordinates":[77.682264,12.954504]},"properties":{"_folder":"flood_prone_locations"}},{"type":"Feature","geometry":{"type":"Point","coordinates":[77.604783,13.029909]},"properties":{"_folder":"flood_prone_locations"}},{"type":"Feature","geometry":{"type":"Point","coordinates":[77.591178,13.025907]},"properties":{"_folder":"flood_prone_locations"}},{"type":"Feature","geometry":{"type":"Point","coordinates":[77.591312,13.031328]},"properties":{"_folder":"flood_prone_locations"}},{"type":"Feature","geometry":{"type":"Point","coordinates":[77.598064,12.991994]},"properties":{"_folder":"flood_prone_locations"}},{"type":"Feature","geometry":{"type":"Point","coordinates":[77.602972,13.002206]},"properties":{"_folder":"flood_prone_locations"}},{"type":"Feature","geometry":{"type":"Point","coordinates":[77.63289,12.972383]},"properties":{"_folder":"flood_prone_locations"}},{"type":"Feature","geometry":{"type":"Point","coordinates":[77.656156,12.954015]},"properties":{"_folder":"flood_prone_locations"}},{"type":"Feature","geometry":{"type":"Point","coordinates":[77.617996,12.959964]},"properties":{"_folder":"flood_prone_locations"}},{"type":"Feature","geometry":{"type":"Point","coordinates":[77.591904,13.008077]},"properties":{"_folder":"flood_prone_locations"}},{"type":"Feature","geometry":{"type":"Point","coordinates":[77.588161,12.984499]},"properties":{"_folder":"flood_prone_locations"}},{"type":"Feature","geometry":{"type":"Point","coordinates":[77.638739,12.960933]},"properties":{"_folder":"flood_prone_locations"}},{"type":"Feature","geometry":{"type":"Point","coordinates":[77.623968,12.981958]},"properties":{"_folder":"flood_prone_locations"}},{"type":"Feature","geometry":{"type":"Point","coordinates":[77.610288,13.009268]},"properties":{"_folder":"flood_prone_locations"}},{"type":"Feature","geometry":{"type":"Point","coordinates":[77.587323,12.975429]},"properties":{"_folder":"flood_prone_locations"}},{"type":"Feature","geometry":{"type":"Point","coordinates":[77.604797,12.970776]},"properties":{"_folder":"flood_prone_locations"}},{"type":"Feature","geometry":{"type":"Point","coordinates":[77.596618,12.971329]},"properties":{"_folder":"flood_prone_locations"}},{"type":"Feature","geometry":{"type":"Point","coordinates":[77.654143,12.972032]},"properties":{"_folder":"flood_prone_locations"}},{"type":"Feature","geometry":{"type":"Point","coordinates":[77.623408,12.995442]},"properties":{"_folder":"flood_prone_locations"}},{"type":"Feature","geometry":{"type":"Point","coordinates":[77.646811,12.973707]},"properties":{"_folder":"flood_prone_locations"}},{"type":"Feature","geometry":{"type":"Point","coordinates":[77.647744,12.968873]},"properties":{"_folder":"flood_prone_locations"}},{"type":"Feature","geometry":{"type":"Point","coordinates":[77.609904,12.996841]},"properties":{"_folder":"flood_prone_locations"}},{"type":"Feature","geometry":{"type":"Point","coordinates":[77.647129,13.011904]},"properties":{"_folder":"flood_prone_locations"}},{"type":"Feature","geometry":{"type":"Point","coordinates":[77.499379,13.006586]},"properties":{"_folder":"flood_prone_locations"}},{"type":"Feature","geometry":{"type":"Point","coordinates":[77.647668,12.90677]},"properties":{"_folder":"flood_prone_locations"}},{"type":"Feature","geometry":{"type":"Point","coordinates":[77.593502,12.87097]},"properties":{"_folder":"flood_prone_locations"}},{"type":"Feature","geometry":{"type":"Point","coordinates":[77.596581,12.88424]},"properties":{"_folder":"flood_prone_locations"}}]}