{"type":"FeatureCollection","name":"flood_vulnerable_locations","source":"OpenCity resource 6b3c63b0-f461-4e9c-a2c2-006f734c5b41","description":"BBMP flood-vulnerable locations (200 points)","features":[{"type":"Feature","geometry":{"type":"Point","coordinates":[77.532435,12.867499]},"properties":{"WARD_NAME":"Hemmigepura","WARDNO":"198","LocationName":"Mantri Lake view Appartment Next to Talagattapura Lake","ZONE":"RR Nagar","_folder":"flood_vulnerable_locations"}},{"type":"Feature","geometry":{"type":"Point","coordinates":[77.528083,12.871775]},"properties":{"WARD_NAME":"Hemmigepura","WARDNO":"198","LocationName":"Kendriya nagara","ZONE":"RR Nagar","_folder":"flood_vulnerable_locations"}},{"type":"Feature","geometry":{"type":"Point","coordinates":[77.542694,12.877711]},"properties":{"WARD_NAME":"Hemmigepura","WARDNO":"198","LocationName":"Raghuvanahalli","ZONE":"RR Nagar","_folder":"flood_vulnerable_locations"}},{"type":"Feature","geometry":{"type":"Point","coordinates":[77.541273,12.877865]},"properties":{"WARD_NAME":"Hemmigepura","WARDNO":"198","LocationName":"Balaji Layout, Kanakapura Road","ZONE":"RR Nagar","_folder":"flood_vulnerable_locations"}},{"type":"Feature","geometry":{"type":"Point","coordinates":[77.637418,12.878907]},"properties":{"WARD_NAME":"Begur","WARDNO":"192","LocationName":"Singasandra Country club road","ZONE":"Bommanahalli","_folder":"flood_vulnerable_locations"}},{"type":"Feature","geometry":{"type":"Point","coordinates":[77.604051,12.879969]},"properties":{"WARD_NAME":"Arakere","WARDNO":"193","LocationName":"Someshwara layout Arekere","ZONE":"Bommanahalli","_folder":"flood_vulnerable_locations"}},{"type":"Feature","geometry":{"type":"Point","coordinates":[77.603987,12.880518]},"properties":{"WARD_NAME":"Arakere","WARDNO":"193","LocationName":"BDA layout Hulimavu","ZONE":"Bommanahalli","_folder":"flood_vulnerable_locations"}},{"type":"Feature","geometry":{"type":"Point","coordinates":[77.604415,12.880586]},"properties":{"WARD_NAME":"Arakere","WARDNO":"193","LocationName":"Kempamma layout RSD Arekere","ZONE":"Bommanahalli","_folder":"flood_vulnerable_locations"}},{"type":"Feature","geometry":{"type":"Point","coordinates":[77.608253,12.881756]},"properties":{"WARD_NAME":"Arakere","WARDNO":"193","LocationName":"Hulimavu Sri Lanka colony","ZONE":"Bommanahalli","_folder":"flood_vulnerable_locations"}},{"type":"Feature","geometry":{"type":"Point","coordinates":[77.642075,12.885937]},"properties":{"WARD_NAME":"Singasandra","WARDNO":"191","LocationName":"Hosur road near Royal Enfield show room","ZONE":"Bommanahalli","_folder":"flood_vulnerable_locations"}},{"type":"Feature","geometry":{"type":"Point","coordinates":[77.611508,12.89657]},"properties":{"WARD_NAME":"Bilekhalli","WARDNO":"188","LocationName":"Anugraha layout Billekahalli","ZONE":"Bommanahalli","_folder":"flood_vulnerable_locations"}},{"type":"Feature","geometry":{"type":"Point","coordinates":[77.692907,12.897817]},"properties":{"WARD_NAME":"Bellandur","WARDNO":"150","LocationName":"Doddakannelli","ZONE":"Bommanahalli","_folder":"flood_vulnerable_locations"}},{"type":"Feature","geometry":{"type":"Point","coordinates":[77.633121,12.900922]},"properties":{"WARD_NAME":"Hongasandra","WARDNO":"189","LocationName":"Garebhavipalya NH  service road junction","ZONE":"Bommanahalli","_folder":"flood_vulnerable_locations"}},{"type":"Feature","geometry":{"type":"Point","coordinates":[77.631443,12.90136]},"properties":{"WARD_NAME":"Hongasandra","WARDNO":"189","LocationName":"Oxford college NH Junction","ZONE":"Bommanahalli","_folder":"flood_vulnerable_locations"}},{"type":"Feature","geometry":{"type":"Point","coordinates":[77.611262,12.901886]},"properties":{"WARD_NAME":"Bilekhalli","WARDNO":"188","LocationName":"Anugraha layout RSD phase 1","ZONE":"Bommanahalli","_folder":"flood_vulnerable_locations"}},{"type":"Feature","geometry":{"type":"Point","coordinates":[77.598853,12.903331]},"properties":{"WARD_NAME":"JP Nagar","WARDNO":"177","LocationName":"Dollars Colony JP Nagar","ZONE":"Bommanahalli","_folder":"flood_vulnerable_locations"}},{"type":"Feature","geometry":{"type":"Point","coordinates":[77.602807,12.904455]},"properties":{"WARD_NAME":"Bilekhalli","WARDNO":"188","LocationName":"Dollars Colony NS palya (BTM 2nd stage)","ZONE":"Bommanahalli","_folder":"flood_vulnerable_locations"}},{"type":"Feature","geometry":{"type":"Point","coordinates":[77.626758,12.904782]},"properties":{"WARD_NAME":"Bommanahalli","WARDNO":"175","LocationName":"Hongasandara Ambedkar Nagar","ZONE":"Bommanahalli","_folder":"flood_vulnerable_locations"}},{"type":"Feature","geometry":{"type":"Point","coordinates":[77.603036,12.904903]},"properties":{"WARD_NAME":"Bilekhalli","WARDNO":"188","LocationName":"NS palya RSD","ZONE":"Bommanahalli","_folder":"flood_vulnerable_locations"}},{"type":"Feature","geometry":{"type":"Point","coordinates":[77.644933,12.909073]},"properties":{"WARD_NAME":"HSR Layout","WARDNO":"174","LocationName":"HSR sector 2 Garden layout","ZONE":"Bommanahalli","_folder":"flood_vulnerable_locations"}},{"type":"Feature","geometry":{"type":"Point","coordinates":[77.641585,12.909359]},"properties":{"WARD_NAME":"HSR Layout","WARDNO":"174","LocationName":"HSR 3rd sector lead off drains","ZONE":"Bommanahalli","_folder":"flood_vulnerable_locations"}},{"type":"Feature","geometry":{"type":"Point","coordinates":[77.512709,12.911066]},"properties":{"WARD_NAME":"Hemmigepura","WARDNO":"198","LocationName":"BEML layout","ZONE":"RR Nagar","_folder":"flood_vulnerable_locations"}},{"type":"Feature","geometry":{"type":"Point","coordinates":[77.632402,12.911655]},"properties":{"WARD_NAME":"HSR Layout","WARDNO":"174","LocationName":"Sector 6 lead off drains surrounding 5th and 9th main","ZONE":"Bommanahalli","_folder":"flood_vulnerable_locations"}},{"type":"Feature","geometry":{"type":"Point","coordinates":[77.632402,12.911655]},"properties":{"WARD_NAME":"HSR Layout","WARDNO":"174","LocationName":"HSR layout 9th and 5th main","ZONE":"Bommanahalli","_folder":"flood_vulnerable_locations"}},{"type":"Feature","geometry":{"type":"Point","coordinates":[77.574917,12.914056]},"properties":{"WARD_NAME":"Shakambari Nagar","WARDNO":"179","LocationName":"Navodaya Layout","ZONE":"South","_folder":"flood_vulnerable_locations"}},{"type":"Feature","geometry":{"type":"Point","coordinates":[77.61675,12.91575]},"properties":{"WARD_NAME":"BTM Layout","WARDNO":"176","LocationName":"BTM layout","ZONE":"South","_folder":"flood_vulnerable_locations"}},{"type":"Feature","geometry":{"type":"Point","coordinates":[77.520507,12.915793]},"properties":{"WARD_NAME":"Rajarajeshwari Nagar","WARDNO":"160","LocationName":"Near Kapi Katte hotel, BEML Layout, 3rd Stage","ZONE":"RR Nagar","_folder":"flood_vulnerable_locations"}},{"type":"Feature","geometry":{"type":"Point","coordinates":[77.522556,12.916406]},"properties":{"WARD_NAME":"Rajarajeshwari Nagar","WARDNO":"160","LocationName":"Shankarappa Layout to BEML gate","ZONE":"RR Nagar","_folder":"flood_vulnerable_locations"}},{"type":"Feature","geometry":{"type":"Point","coordinates":[77.520883,12.916433]},"properties":{"WARD_NAME":"Rajarajeshwari Nagar","WARDNO":"160","LocationName":"RR nagar BEML 5th stage near Kapi katte hotel","ZONE":"RR Nagar","_folder":"flood_vulnerable_locations"}},{"type":"Feature","geometry":{"type":"Point","coordinates":[77.599889,12.916472]},"properties":{"WARD_NAME":"JP Nagar","WARDNO":"177","LocationName":"Hosur road Jayadeva flyover to Udupi Garden Signal","ZONE":"South","_folder":"flood_vulnerable_locations"}},{"type":"Feature","geometry":{"type":"Point","coordinates":[77.622722,12.917194]},"properties":{"WARD_NAME":"Bommanahalli","WARDNO":"175","LocationName":"Silk Board junction","ZONE":"South","_folder":"flood_vulnerable_locations"}},{"type":"Feature","geometry":{"type":"Point","coordinates":[77.501991,12.918067]},"properties":{"WARD_NAME":"Hemmigepura","WARDNO":"198","LocationName":"Global Village Joining V Valley at Global Village Property","ZONE":"RR Nagar","_folder":"flood_vulnerable_locations"}},{"type":"Feature","geometry":{"type":"Point","coordinates":[77.621889,12.918639]},"properties":{"WARD_NAME":"Jakkasandra","WARDNO":"173","LocationName":"Silk Board","ZONE":"South","_folder":"flood_vulnerable_locations"}},{"type":"Feature","geometry":{"type":"Point","coordinates":[77.732498,12.92109]},"properties":{"WARD_NAME":"Varthuru","WARDNO":"149","LocationName":"Gunjur","ZONE":"Mahadevapura","_folder":"flood_vulnerable_locations"}},{"type":"Feature","geometry":{"type":"Point","coordinates":[77.599944,12.921694]},"properties":{"WARD_NAME":"Jayanagar East","WARDNO":"170","LocationName":"Bannerghatta road near Oakyard Apartment","ZONE":"South","_folder":"flood_vulnerable_locations"}},{"type":"Feature","geometry":{"type":"Point","coordinates":[77.51148,12.922204]},"properties":{"WARD_NAME":"Hemmigepura","WARDNO":"198","LocationName":"Heorhalli, Mahadeshwara Nagara","ZONE":"RR Nagar","_folder":"flood_vulnerable_locations"}},{"type":"Feature","geometry":{"type":"Point","coordinates":[77.518522,12.922817]},"properties":{"WARD_NAME":"Rajarajeshwari Nagar","WARDNO":"160","LocationName":"Basaveshwara Circle BEML 3rd stage","ZONE":"RR Nagar","_folder":"flood_vulnerable_locations"}},{"type":"Feature","geometry":{"type":"Point","coordinates":[77.600444,12.923]},"properties":{"WARD_NAME":"Gurappanapalya","WARDNO":"171","LocationName":"Gurappanapalya Banneragatta main road","ZONE":"South","_folder":"flood_vulnerable_locations"}},{"type":"Feature","geometry":{"type":"Point","coordinates":[77.538937,12.923239]},"properties":{"WARD_NAME":"Rajarajeshwari Nagar","WARDNO":"160","LocationName":"Gurudutta Layout to Sapthagiri Layout","ZONE":"RR Nagar","_folder":"flood_vulnerable_locations"}},{"type":"Feature","geometry":{"type":"Point","coordinates":[77.505003,12.923415]},"properties":{"WARD_NAME":"Hemmigepura","WARDNO":"198","LocationName":"Pattanagere main road beside RV college","ZONE":"RR Nagar","_folder":"flood_vulnerable_locations"}},{"type":"Feature","geometry":{"type":"Point","coordinates":[77.539133,12.924696]},"properties":{"WARD_NAME":"Hosakerehalli","WARDNO":"161","LocationName":"Near Dattarthraya Temple, Hosakerehalli","ZONE":"South","_folder":"flood_vulnerable_locations"}},{"type":"Feature","geometry":{"type":"Point","coordinates":[77.521556,12.924817]},"properties":{"WARD_NAME":"Rajarajeshwari Nagar","WARDNO":"160","LocationName":"Halagevadeyarahalli lake to Kenchenahalli  lake","ZONE":"RR Nagar","_folder":"flood_vulnerable_locations"}},{"type":"Feature","geometry":{"type":"Point","coordinates":[77.609028,12.924944]},"properties":{"WARD_NAME":"Madivala","WARDNO":"172","LocationName":"Tavarekere Main road","ZONE":"South","_folder":"flood_vulnerable_locations"}},{"type":"Feature","geometry":{"type":"Point","coordinates":[77.678116,12.926464]},"properties":{"WARD_NAME":"Bellandur","WARDNO":"150","LocationName":"Bellandur","ZONE":"Mahadevapura","_folder":"flood_vulnerable_locations"}},{"type":"Feature","geometry":{"type":"Point","coordinates":[77.520331,12.928569]},"properties":{"WARD_NAME":"Rajarajeshwari Nagar","WARDNO":"160","LocationName":"Jawaregowdana Doddi, Bangarappa Nagara","ZONE":"RR Nagar","_folder":"flood_vulnerable_locations"}},{"type":"Feature","geometry":{"type":"Point","coordinates":[77.717908,12.928796]},"properties":{"WARD_NAME":"Varthuru","WARDNO":"149","LocationName":"Sarjapura road","ZONE":"Mahadevapura","_folder":"flood_vulnerable_locations"}},{"type":"Feature","geometry":{"type":"Point","coordinates":[77.601028,12.93025]},"properties":{"WARD_NAME":"Suddgunte Palya","WARDNO":"152","LocationName":"Bannerghatta Road near spar super market","ZONE":"South","_folder":"flood_vulnerable_locations"}},{"type":"Feature","geometry":{"type":"Point","coordinates":[77.512992,12.931592]},"properties":{"WARD_NAME":"Rajarajeshwari Nagar","WARDNO":"160","LocationName":"Near DIAT college","ZONE":"RR Nagar","_folder":"flood_vulnerable_locations"}},{"type":"Feature","geometry":{"type":"Point","coordinates":[77.593917,12.931917]},"properties":{"WARD_NAME":"Jayanagar","WARDNO":"153","LocationName":"Gulbarga Calony RBI extension","ZONE":"South","_folder":"flood_vulnerable_locations"}},{"type":"Feature","geometry":{"type":"Point","coordinates":[77.535323,12.932023]},"properties":{"WARD_NAME":"Hosakerehalli","WARDNO":"161","LocationName":"Hosakerehalli, near D'souza Nagara","ZONE":"South","_folder":"flood_vulnerable_locations"}},{"type":"Feature","geometry":{"type":"Point","coordinates":[77.516858,12.932791]},"properties":{"WARD_NAME":"Rajarajeshwari Nagar","WARDNO":"160","LocationName":"Ideal Homes beside Akkamahadevi choultry","ZONE":"RR Nagar","_folder":"flood_vulnerable_locations"}},{"type":"Feature","geometry":{"type":"Point","coordinates":[77.588972,12.932944]},"properties":{"WARD_NAME":"Byrasandra","WARDNO":"169","LocationName":"Byrasandara Fire station","ZONE":"South","_folder":"flood_vulnerable_locations"}},{"type":"Feature","geometry":{"type":"Point","coordinates":[77.630389,12.933806]},"properties":{"WARD_NAME":"Ejipura","WARDNO":"148","LocationName":"Koramangala 4 th block","ZONE":"South","_folder":"flood_vulnerable_locations"}},{"type":"Feature","geometry":{"type":"Point","coordinates":[77.630139,12.934722]},"properties":{"WARD_NAME":"Ejipura","WARDNO":"148","LocationName":"ST Bed Koramangala","ZONE":"South","_folder":"flood_vulnerable_locations"}},{"type":"Feature","geometry":{"type":"Point","coordinates":[77.705013,12.936355]},"properties":{"WARD_NAME":"Varthuru","WARDNO":"149","LocationName":"Panathur","ZONE":"Mahadevapura","_folder":"flood_vulnerable_locations"}},{"type":"Feature","geometry":{"type":"Point","coordinates":[77.626417,12.936889]},"properties":{"WARD_NAME":"Koramangala","WARDNO":"151","LocationName":"Sony Signal to Maharaja signal in Koramangala","ZONE":"South","_folder":"flood_vulnerable_locations"}},{"type":"Feature","geometry":{"type":"Point","coordinates":[77.746844,12.938078]},"properties":{"WARD_NAME":"Varthuru","WARDNO":"149","LocationName":"Varthur police station","ZONE":"Mahadevapura","_folder":"flood_vulnerable_locations"}},{"type":"Feature","geometry":{"type":"Point","coordinates":[77.62875,12.938639]},"properties":{"WARD_NAME":"Ejipura","WARDNO":"148","LocationName":"Ejipura Ashwini layout","ZONE":"South","_folder":"flood_vulnerable_locations"}},{"type":"Feature","geometry":{"type":"Point","coordinates":[77.723178,12.938932]},"properties":{"WARD_NAME":"Varthuru","WARDNO":"149","LocationName":"Balagere","ZONE":"Mahadevapura","_folder":"flood_vulnerable_locations"}},{"type":"Feature","geometry":{"type":"Point","coordinates":[77.482942,12.942045]},"properties":{"WARD_NAME":"Ullalu","WARDNO":"130","LocationName":"Sonnenahalli Bridge Upstream  Gollarahatti","ZONE":"RR Nagar","_folder":"flood_vulnerable_locations"}},{"type":"Feature","geometry":{"type":"Point","coordinates":[77.581472,12.943583]},"properties":{"WARD_NAME":"Jayanagar","WARDNO":"153","LocationName":"RV Teachers College","ZONE":"South","_folder":"flood_vulnerable_locations"}},{"type":"Feature","geometry":{"type":"Point","coordinates":[77.525586,12.944653]},"properties":{"WARD_NAME":"Nayandahalli","WARDNO":"131","LocationName":"Nayandahalli and near Railway track","ZONE":"West","_folder":"flood_vulnerable_locations"}},{"type":"Feature","geometry":{"type":"Point","coordinates":[77.53507,12.945302]},"properties":{"WARD_NAME":"Deepanjali Nagar","WARDNO":"158","LocationName":"Ranganatha Colony","ZONE":"South","_folder":"flood_vulnerable_locations"}},{"type":"Feature","geometry":{"type":"Point","coordinates":[77.528937,12.94548]},"properties":{"WARD_NAME":"Deepanjali Nagar","WARDNO":"158","LocationName":"Nayandahalli Junction, Mysore road","ZONE":"South","_folder":"flood_vulnerable_locations"}},{"type":"Feature","geometry":{"type":"Point","coordinates":[77.589639,12.946306]},"properties":{"WARD_NAME":"Siddapura","WARDNO":"144","LocationName":"Siddpapura gate","ZONE":"South","_folder":"flood_vulnerable_locations"}},{"type":"Feature","geometry":{"type":"Point","coordinates":[77.563378,12.947235]},"properties":{"WARD_NAME":"Hanumanth Nagar","WARDNO":"155","LocationName":"Kempegowda Nagar","ZONE":"South","_folder":"flood_vulnerable_locations"}},{"type":"Feature","geometry":{"type":"Point","coordinates":[77.563375,12.947328]},"properties":{"WARD_NAME":"Hanumanth Nagar","WARDNO":"155","LocationName":"Anjanappa Layout to Kempegowda Nagara","ZONE":"South","_folder":"flood_vulnerable_locations"}},{"type":"Feature","geometry":{"type":"Point","coordinates":[77.619194,12.947861]},"properties":{"WARD_NAME":"Nilasandra","WARDNO":"116","LocationName":"Rajendra Nagar slum opp KPWD quarters","ZONE":"South","_folder":"flood_vulnerable_locations"}},{"type":"Feature","geometry":{"type":"Point","coordinates":[77.487694,12.949595]},"properties":{"WARD_NAME":"Ullalu","WARDNO":"130","LocationName":"Vinayaka layout","ZONE":"RR Nagar","_folder":"flood_vulnerable_locations"}},{"type":"Feature","geometry":{"type":"Point","coordinates":[77.700679,12.949943]},"properties":{"WARD_NAME":"Bellandur","WARDNO":"150","LocationName":"S G R Dental college","ZONE":"Mahadevapura","_folder":"flood_vulnerable_locations"}},{"type":"Feature","geometry":{"type":"Point","coordinates":[77.625889,12.950389]},"properties":{"WARD_NAME":"Vannarpet","WARDNO":"115","LocationName":"Ejipura opp army land","ZONE":"East","_folder":"flood_vulnerable_locations"}},{"type":"Feature","geometry":{"type":"Point","coordinates":[77.538597,12.950568]},"properties":{"WARD_NAME":"Gali Anjanaya Temple","WARDNO":"157","LocationName":"Kavika Bridge to Nice road bridge","ZONE":"South","_folder":"flood_vulnerable_locations"}},{"type":"Feature","geometry":{"type":"Point","coordinates":[77.605611,12.951]},"properties":{"WARD_NAME":"Shanthi Nagar","WARDNO":"117","LocationName":"Anepalya junction","ZONE":"East","_folder":"flood_vulnerable_locations"}},{"type":"Feature","geometry":{"type":"Point","coordinates":[77.599,12.951167]},"properties":{"WARD_NAME":"Shanthi Nagar","WARDNO":"117","LocationName":"JK Pura","ZONE":"East","_folder":"flood_vulnerable_locations"}},{"type":"Feature","geometry":{"type":"Point","coordinates":[77.605944,12.951944]},"properties":{"WARD_NAME":"Shanthi Nagar","WARDNO":"117","LocationName":"Anepalya Gajendranagar SWD surroundings","ZONE":"East","_folder":"flood_vulnerable_locations"}},{"type":"Feature","geometry":{"type":"Point","coordinates":[77.596833,12.952972]},"properties":{"WARD_NAME":"Shanthi Nagar","WARDNO":"117","LocationName":"Wilson garden PWD quarters","ZONE":"East","_folder":"flood_vulnerable_locations"}},{"type":"Feature","geometry":{"type":"Point","coordinates":[77.541253,12.953035]},"properties":{"WARD_NAME":"Hampinagar","WARDNO":"133","LocationName":"Sri Galianjaneya  swamy temple, Mysore road","ZONE":"South","_folder":"flood_vulnerable_locations"}},{"type":"Feature","geometry":{"type":"Point","coordinates":[77.574283,12.953748]},"properties":{"WARD_NAME":"Vishveshwara Puram","WARDNO":"143","LocationName":"VV Puram Law College to Mallathhali tank","ZONE":"South","_folder":"flood_vulnerable_locations"}},{"type":"Feature","geometry":{"type":"Point","coordinates":[77.690549,12.955021]},"properties":{"WARD_NAME":"Marathahalli","WARDNO":"86","LocationName":"Deepa nursing home","ZONE":"Mahadevapura","_folder":"flood_vulnerable_locations"}},{"type":"Feature","geometry":{"type":"Point","coordinates":[77.649048,12.955624]},"properties":{"WARD_NAME":"Konena Agrahara","WARDNO":"113","LocationName":"BDA Layout Konena Agrahara","ZONE":"East","_folder":"flood_vulnerable_locations"}},{"type":"Feature","geometry":{"type":"Point","coordinates":[77.720545,12.955652]},"properties":{"WARD_NAME":"Doddanekkundi","WARDNO":"85","LocationName":"Thubarahalli","ZONE":"Mahadevapura","_folder":"flood_vulnerable_locations"}},{"type":"Feature","geometry":{"type":"Point","coordinates":[77.597028,12.956139]},"properties":{"WARD_NAME":"Shanthi Nagar","WARDNO":"117","LocationName":"Micheal church","ZONE":"East","_folder":"flood_vulnerable_locations"}},{"type":"Feature","geometry":{"type":"Point","coordinates":[77.741044,12.956182]},"properties":{"WARD_NAME":"Hagadur","WARDNO":"84","LocationName":"Ramagondanahalli","ZONE":"Mahadevapura","_folder":"flood_vulnerable_locations"}},{"type":"Feature","geometry":{"type":"Point","coordinates":[77.54258,12.956317]},"properties":{"WARD_NAME":"Bapuji Nagar","WARDNO":"134","LocationName":"Hosaguddadahalli, Bapujinagara","ZONE":"South","_folder":"flood_vulnerable_locations"}},{"type":"Feature","geometry":{"type":"Point","coordinates":[77.735939,12.95694]},"properties":{"WARD_NAME":"Hagadur","WARDNO":"84","LocationName":"Varthur","ZONE":"Mahadevapura","_folder":"flood_vulnerable_locations"}},{"type":"Feature","geometry":{"type":"Point","coordinates":[77.562083,12.957039]},"properties":{"WARD_NAME":"Chamrajpet","WARDNO":"140","LocationName":"Chamarajapet","ZONE":"West","_folder":"flood_vulnerable_locations"}},{"type":"Feature","geometry":{"type":"Point","coordinates":[77.568681,12.957242]},"properties":{"WARD_NAME":"Chamrajpet","WARDNO":"140","LocationName":"Nari Halla","ZONE":"West","_folder":"flood_vulnerable_locations"}},{"type":"Feature","geometry":{"type":"Point","coordinates":[77.514429,12.957687]},"properties":{"WARD_NAME":"Nagarbhavi","WARDNO":"128","LocationName":"NGEF layout","ZONE":"West","_folder":"flood_vulnerable_locations"}},{"type":"Feature","geometry":{"type":"Point","coordinates":[77.744919,12.958488]},"properties":{"WARD_NAME":"Hagadur","WARDNO":"84","LocationName":"Varthur Columbia Asia hospital","ZONE":"Mahadevapura","_folder":"flood_vulnerable_locations"}},{"type":"Feature","geometry":{"type":"Point","coordinates":[77.511303,12.959262]},"properties":{"WARD_NAME":"Jnana Bharathi","WARDNO":"129","LocationName":"Backside Fortis Hospital NGEF Layout","ZONE":"RR Nagar","_folder":"flood_vulnerable_locations"}},{"type":"Feature","geometry":{"type":"Point","coordinates":[77.708075,12.959824]},"properties":{"WARD_NAME":"Doddanekkundi","WARDNO":"85","LocationName":"Munnekolalu","ZONE":"Mahadevapura","_folder":"flood_vulnerable_locations"}},{"type":"Feature","geometry":{"type":"Point","coordinates":[77.643056,12.961111]},"properties":{"WARD_NAME":"Jeevanbhima Nagar","WARDNO":"88","LocationName":"Nandhini hotel backside on 100 feet road Indiranagar","ZONE":"East","_folder":"flood_vulnerable_locations"}},{"type":"Feature","geometry":{"type":"Point","coordinates":[77.582806,12.962111]},"properties":{"WARD_NAME":"Dharmaraya Swamy Temple Ward","WARDNO":"119","LocationName":"Kumbaragundi","ZONE":"South","_folder":"flood_vulnerable_locations"}},{"type":"Feature","geometry":{"type":"Point","coordinates":[77.49191,12.96241]},"properties":{"WARD_NAME":"Herohalli","WARDNO":"72","LocationName":"Mallathahalli lake inlet Muddaiahna palya road","ZONE":"RR Nagar","_folder":"flood_vulnerable_locations"}},{"type":"Feature","geometry":{"type":"Point","coordinates":[77.583972,12.962417]},"properties":{"WARD_NAME":"Dharmaraya Swamy Temple Ward","WARDNO":"119","LocationName":"Kumbargundi lead off drains","ZONE":"South","_folder":"flood_vulnerable_locations"}},{"type":"Feature","geometry":{"type":"Point","coordinates":[77.579806,12.963]},"properties":{"WARD_NAME":"Dharmaraya Swamy Temple Ward","WARDNO":"119","LocationName":"Osaman Khan  road near KR Market","ZONE":"South","_folder":"flood_vulnerable_locations"}},{"type":"Feature","geometry":{"type":"Point","coordinates":[77.614639,12.963722]},"properties":{"WARD_NAME":"Shantala Nagar","WARDNO":"111","LocationName":"Palm grove road","ZONE":"East","_folder":"flood_vulnerable_locations"}},{"type":"Feature","geometry":{"type":"Point","coordinates":[77.566525,12.965317]},"properties":{"WARD_NAME":"Chalavadipalya","WARDNO":"138","LocationName":"Cheluvadipalya Near by  Good Shed Road","ZONE":"West","_folder":"flood_vulnerable_locations"}},{"type":"Feature","geometry":{"type":"Point","coordinates":[77.566525,12.965317]},"properties":{"WARD_NAME":"Chalavadipalya","WARDNO":"138","LocationName":"Siddartha Nagar, Cheluvadipalya","ZONE":"West","_folder":"flood_vulnerable_locations"}},{"type":"Feature","geometry":{"type":"Point","coordinates":[77.517394,12.965703]},"properties":{"WARD_NAME":"Kottegepalya","WARDNO":"73","LocationName":"Bande Maramma Temple behind Nagarabhavi 10th cross Bus Stop","ZONE":"RR Nagar","_folder":"flood_vulnerable_locations"}},{"type":"Feature","geometry":{"type":"Point","coordinates":[77.552619,12.965883]},"properties":{"WARD_NAME":"Rayapuram","WARDNO":"137","LocationName":"Rayapuram near Govt. Maternity Hospital","ZONE":"West","_folder":"flood_vulnerable_locations"}},{"type":"Feature","geometry":{"type":"Point","coordinates":[77.517489,12.96595]},"properties":{"WARD_NAME":"Kottegepalya","WARDNO":"73","LocationName":"Malagala main road to Vrishabhavathi Valley","ZONE":"RR Nagar","_folder":"flood_vulnerable_locations"}},{"type":"Feature","geometry":{"type":"Point","coordinates":[77.682778,12.966389]},"properties":{"WARD_NAME":"Vijnana Nagar","WARDNO":"81","LocationName":"Talakaveri layout","ZONE":"Mahadevapura","_folder":"flood_vulnerable_locations"}},{"type":"Feature","geometry":{"type":"Point","coordinates":[77.549697,12.968405]},"properties":{"WARD_NAME":"Hosahalli","WARDNO":"124","LocationName":"Vrishabhavthi main valley near Cholurapalya","ZONE":"South","_folder":"flood_vulnerable_locations"}},{"type":"Feature","geometry":{"type":"Point","coordinates":[77.692178,12.969066]},"properties":{"WARD_NAME":"Doddanekkundi","WARDNO":"85","LocationName":"Doddenakundi near Gururaja layout","ZONE":"Mahadevapura","_folder":"flood_vulnerable_locations"}},{"type":"Feature","geometry":{"type":"Point","coordinates":[77.736686,12.9693]},"properties":{"WARD_NAME":"Hagadur","WARDNO":"84","LocationName":"Nellurahalli","ZONE":"Mahadevapura","_folder":"flood_vulnerable_locations"}},{"type":"Feature","geometry":{"type":"Point","coordinates":[77.609667,12.970611]},"properties":{"WARD_NAME":"Shantala Nagar","WARDNO":"111","LocationName":"Magrath road and brigade road junction","ZONE":"East","_folder":"flood_vulnerable_locations"}},{"type":"Feature","geometry":{"type":"Point","coordinates":[77.633611,12.970833]},"properties":{"WARD_NAME":"Jogupalya","WARDNO":"89","LocationName":"Cambridge layout near Jogupalya","ZONE":"East","_folder":"flood_vulnerable_locations"}},{"type":"Feature","geometry":{"type":"Point","coordinates":[77.518656,12.971169]},"properties":{"WARD_NAME":"Mudalapalya","WARDNO":"127","LocationName":"Kalyannagar, Moodalapalya","ZONE":"West","_folder":"flood_vulnerable_locations"}},{"type":"Feature","geometry":{"type":"Point","coordinates":[77.633333,12.971667]},"properties":{"WARD_NAME":"Jogupalya","WARDNO":"89","LocationName":"Jogupalya in Ulsoor","ZONE":"East","_folder":"flood_vulnerable_locations"}},{"type":"Feature","geometry":{"type":"Point","coordinates":[77.554109,12.972248]},"properties":{"WARD_NAME":"Kempapura","WARDNO":"122","LocationName":"Kempapura Agrahara Secondary Drain, Magadi road","ZONE":"South","_folder":"flood_vulnerable_locations"}},{"type":"Feature","geometry":{"type":"Point","coordinates":[77.562883,12.972619]},"properties":{"WARD_NAME":"Cottonpete","WARDNO":"120","LocationName":"K P Agrahara 7th Cross  Road","ZONE":"West","_folder":"flood_vulnerable_locations"}},{"type":"Feature","geometry":{"type":"Point","coordinates":[77.546651,12.97373]},"properties":{"WARD_NAME":"Vijayanagar","WARDNO":"123","LocationName":"Manuvana, Pipeline road","ZONE":"South","_folder":"flood_vulnerable_locations"}},{"type":"Feature","geometry":{"type":"Point","coordinates":[77.560417,12.975217]},"properties":{"WARD_NAME":"Binnypete","WARDNO":"121","LocationName":"Gopalpura area","ZONE":"West","_folder":"flood_vulnerable_locations"}},{"type":"Feature","geometry":{"type":"Point","coordinates":[77.560417,12.975217]},"properties":{"WARD_NAME":"Binnypete","WARDNO":"121","LocationName":"Gopalpura","ZONE":"West","_folder":"flood_vulnerable_locations"}},{"type":"Feature","geometry":{"type":"Point","coordinates":[77.562704,12.975619]},"properties":{"WARD_NAME":"Okalipuram","WARDNO":"96","LocationName":"Netaji Nagara in  KP Agrahara","ZONE":"West","_folder":"flood_vulnerable_locations"}},{"type":"Feature","geometry":{"type":"Point","coordinates":[77.567347,12.976597]},"properties":{"WARD_NAME":"Subhash Nagar","WARDNO":"95","LocationName":"Binnymill Road  near Belimath","ZONE":"West","_folder":"flood_vulnerable_locations"}},{"type":"Feature","geometry":{"type":"Point","coordinates":[77.627222,12.978333]},"properties":{"WARD_NAME":"Halsoor","WARDNO":"90","LocationName":"MV garden & Murphy market","ZONE":"East","_folder":"flood_vulnerable_locations"}},{"type":"Feature","geometry":{"type":"Point","coordinates":[77.733753,12.978889]},"properties":{"WARD_NAME":"Garudachar Palya","WARDNO":"82","LocationName":"Pattandur agrahara","ZONE":"Mahadevapura","_folder":"flood_vulnerable_locations"}},{"type":"Feature","geometry":{"type":"Point","coordinates":[77.569772,12.98]},"properties":{"WARD_NAME":"Subhash Nagar","WARDNO":"95","LocationName":"Nagamma nagara Near Binny mill road","ZONE":"West","_folder":"flood_vulnerable_locations"}},{"type":"Feature","geometry":{"type":"Point","coordinates":[77.565525,12.98345]},"properties":{"WARD_NAME":"Okalipuram","WARDNO":"96","LocationName":"Gandi Statue, Oklipuram.","ZONE":"West","_folder":"flood_vulnerable_locations"}},{"type":"Feature","geometry":{"type":"Point","coordinates":[77.546064,12.984117]},"properties":{"WARD_NAME":"Dr. Rajkumar","WARDNO":"106","LocationName":"Rajajinagar  Industrial  Area ,1st Cross Road","ZONE":"West","_folder":"flood_vulnerable_locations"}},{"type":"Feature","geometry":{"type":"Point","coordinates":[77.604167,12.986389]},"properties":{"WARD_NAME":"Shivaji Nagar","WARDNO":"92","LocationName":"Broadway road junction","ZONE":"East","_folder":"flood_vulnerable_locations"}},{"type":"Feature","geometry":{"type":"Point","coordinates":[77.610278,12.986389]},"properties":{"WARD_NAME":"Bharathi Nagar","WARDNO":"91","LocationName":"Armstrong road junction in Shivajinagar","ZONE":"East","_folder":"flood_vulnerable_locations"}},{"type":"Feature","geometry":{"type":"Point","coordinates":[77.489502,12.987014]},"properties":{"WARD_NAME":"Herohalli","WARDNO":"72","LocationName":"Herohalli lake inlet Handrahalli main road","ZONE":"RR Nagar","_folder":"flood_vulnerable_locations"}},{"type":"Feature","geometry":{"type":"Point","coordinates":[77.559297,12.987564]},"properties":{"WARD_NAME":"Sri Ramamandir","WARDNO":"108","LocationName":"Sri Rammandir, Gubbanna Industrial Estate","ZONE":"West","_folder":"flood_vulnerable_locations"}},{"type":"Feature","geometry":{"type":"Point","coordinates":[77.690278,12.988889]},"properties":{"WARD_NAME":"Vijnana Nagar","WARDNO":"81","LocationName":"Shivaganga layout","ZONE":"Mahadevapura","_folder":"flood_vulnerable_locations"}},{"type":"Feature","geometry":{"type":"Point","coordinates":[77.668333,12.990278]},"properties":{"WARD_NAME":"A Narayanapura","WARDNO":"56","LocationName":"Pai Layout","ZONE":"Mahadevapura","_folder":"flood_vulnerable_locations"}},{"type":"Feature","geometry":{"type":"Point","coordinates":[77.54405,12.990872]},"properties":{"WARD_NAME":"Basaveshwaranagar","WARDNO":"100","LocationName":"Netaji ground & Saneguruvanalli","ZONE":"West","_folder":"flood_vulnerable_locations"}},{"type":"Feature","geometry":{"type":"Point","coordinates":[77.521437,12.991243]},"properties":{"WARD_NAME":"Vrisabhavathi Nagar","WARDNO":"102","LocationName":"Near summanahalli bridge (up stream)","ZONE":"West","_folder":"flood_vulnerable_locations"}},{"type":"Feature","geometry":{"type":"Point","coordinates":[77.570564,12.991328]},"properties":{"WARD_NAME":"Subhash Nagar","WARDNO":"95","LocationName":"Near Mantri Mall bridge","ZONE":"West","_folder":"flood_vulnerable_locations"}},{"type":"Feature","geometry":{"type":"Point","coordinates":[77.718137,12.992015]},"properties":{"WARD_NAME":"Garudachar Palya","WARDNO":"82","LocationName":"Hoodi","ZONE":"Mahadevapura","_folder":"flood_vulnerable_locations"}},{"type":"Feature","geometry":{"type":"Point","coordinates":[77.557167,12.993483]},"properties":{"WARD_NAME":"Prakash Nagar","WARDNO":"98","LocationName":"Prakashnagar Near Mudalayar Choultry","ZONE":"West","_folder":"flood_vulnerable_locations"}},{"type":"Feature","geometry":{"type":"Point","coordinates":[77.658889,12.994722]},"properties":{"WARD_NAME":"Benniganahalli","WARDNO":"50","LocationName":"Railway parallel road Sadanadanagar","ZONE":"East","_folder":"flood_vulnerable_locations"}},{"type":"Feature","geometry":{"type":"Point","coordinates":[77.692871,12.99492]},"properties":{"WARD_NAME":"Garudachar Palya","WARDNO":"82","LocationName":"Maheshwari nagar","ZONE":"Mahadevapura","_folder":"flood_vulnerable_locations"}},{"type":"Feature","geometry":{"type":"Point","coordinates":[77.573383,12.996014]},"properties":{"WARD_NAME":"Dattatreya Temple","WARDNO":"77","LocationName":"Link Road, Malleshwaram","ZONE":"West","_folder":"flood_vulnerable_locations"}},{"type":"Feature","geometry":{"type":"Point","coordinates":[77.488104,12.996413]},"properties":{"WARD_NAME":"Herohalli","WARDNO":"72","LocationName":"Syndicate Layout beside park","ZONE":"RR Nagar","_folder":"flood_vulnerable_locations"}},{"type":"Feature","geometry":{"type":"Point","coordinates":[77.578042,12.997414]},"properties":{"WARD_NAME":"Dattatreya Temple","WARDNO":"77","LocationName":"Guttahalli Circle, Malleshwaram","ZONE":"West","_folder":"flood_vulnerable_locations"}},{"type":"Feature","geometry":{"type":"Point","coordinates":[77.573108,12.997669]},"properties":{"WARD_NAME":"Dattatreya Temple","WARDNO":"77","LocationName":"Near by 2nd Cross Ring Road","ZONE":"West","_folder":"flood_vulnerable_locations"}},{"type":"Feature","geometry":{"type":"Point","coordinates":[77.51674,12.99822]},"properties":{"WARD_NAME":"Kottegepalya","WARDNO":"73","LocationName":"Pillappanakatte valley (KTG Roads to DWCC)","ZONE":"Dasarahalli","_folder":"flood_vulnerable_locations"}},{"type":"Feature","geometry":{"type":"Point","coordinates":[77.527878,13.001]},"properties":{"WARD_NAME":"Shankar Matt","WARDNO":"75","LocationName":"1st main road bridge down stream","ZONE":"West","_folder":"flood_vulnerable_locations"}},{"type":"Feature","geometry":{"type":"Point","coordinates":[77.516454,13.001532]},"properties":{"WARD_NAME":"Rajagopal Nagar","WARDNO":"70","LocationName":"Lavakushanagara to Vrishabhavathi Valley","ZONE":"Dasarahalli","_folder":"flood_vulnerable_locations"}},{"type":"Feature","geometry":{"type":"Point","coordinates":[77.532553,13.001756]},"properties":{"WARD_NAME":"Shankar Matt","WARDNO":"75","LocationName":"Jai Maruthi nagar and Nandini layout bridge ( up and down stream)","ZONE":"West","_folder":"flood_vulnerable_locations"}},{"type":"Feature","geometry":{"type":"Point","coordinates":[77.563611,13.003306]},"properties":{"WARD_NAME":"Kadu Malleshwar","WARDNO":"65","LocationName":"Munikrishnappa layout area of Kaveripura","ZONE":"West","_folder":"flood_vulnerable_locations"}},{"type":"Feature","geometry":{"type":"Point","coordinates":[77.529047,13.003567]},"properties":{"WARD_NAME":"Shankar Matt","WARDNO":"75","LocationName":"Sandeep bar","ZONE":"West","_folder":"flood_vulnerable_locations"}},{"type":"Feature","geometry":{"type":"Point","coordinates":[77.529492,13.004117]},"properties":{"WARD_NAME":"Laggere","WARDNO":"69","LocationName":"Kemegowda bridge","ZONE":"West","_folder":"flood_vulnerable_locations"}},{"type":"Feature","geometry":{"type":"Point","coordinates":[77.529317,13.004175]},"properties":{"WARD_NAME":"Laggere","WARDNO":"69","LocationName":"17th and 19th main in Kamalanagar","ZONE":"West","_folder":"flood_vulnerable_locations"}},{"type":"Feature","geometry":{"type":"Point","coordinates":[77.529094,13.004406]},"properties":{"WARD_NAME":"Laggere","WARDNO":"69","LocationName":"Laggere 40-vent Bridge","ZONE":"West","_folder":"flood_vulnerable_locations"}},{"type":"Feature","geometry":{"type":"Point","coordinates":[77.530042,13.005864]},"properties":{"WARD_NAME":"Nandini Layout","WARDNO":"43","LocationName":"Nandini Layout Junction","ZONE":"West","_folder":"flood_vulnerable_locations"}},{"type":"Feature","geometry":{"type":"Point","coordinates":[77.672222,13.006667]},"properties":{"WARD_NAME":"Vijnanapura","WARDNO":"51","LocationName":"RR layout & Ambedkar Nagar","ZONE":"Mahadevapura","_folder":"flood_vulnerable_locations"}},{"type":"Feature","geometry":{"type":"Point","coordinates":[77.696389,13.006667]},"properties":{"WARD_NAME":"Devasandra","WARDNO":"55","LocationName":"Devasandra (Nethravathi Badavane)","ZONE":"Mahadevapura","_folder":"flood_vulnerable_locations"}},{"type":"Feature","geometry":{"type":"Point","coordinates":[77.636944,13.008889]},"properties":{"WARD_NAME":"Kammanahalli","WARDNO":"28","LocationName":"Kalyananagar","ZONE":"East","_folder":"flood_vulnerable_locations"}},{"type":"Feature","geometry":{"type":"Point","coordinates":[77.535528,13.009511]},"properties":{"WARD_NAME":"Nandini Layout","WARDNO":"43","LocationName":"Near ward office ( circular road)","ZONE":"West","_folder":"flood_vulnerable_locations"}},{"type":"Feature","geometry":{"type":"Point","coordinates":[77.535528,13.009511]},"properties":{"WARD_NAME":"Nandini Layout","WARDNO":"43","LocationName":"Back of Presidency school","ZONE":"West","_folder":"flood_vulnerable_locations"}},{"type":"Feature","geometry":{"type":"Point","coordinates":[77.535528,13.009511]},"properties":{"WARD_NAME":"Nandini Layout","WARDNO":"43","LocationName":"3rd circular road Nandini layout","ZONE":"West","_folder":"flood_vulnerable_locations"}},{"type":"Feature","geometry":{"type":"Point","coordinates":[77.680278,13.010556]},"properties":{"WARD_NAME":"Vijnanapura","WARDNO":"51","LocationName":"ITI Layout","ZONE":"Mahadevapura","_folder":"flood_vulnerable_locations"}},{"type":"Feature","geometry":{"type":"Point","coordinates":[77.681389,13.010833]},"properties":{"WARD_NAME":"K R Puram","WARDNO":"52","LocationName":"Ambedkar Nagar near Ramamurthy Nagar","ZONE":"Mahadevapura","_folder":"flood_vulnerable_locations"}},{"type":"Feature","geometry":{"type":"Point","coordinates":[77.528064,13.010953]},"properties":{"WARD_NAME":"Nandini Layout","WARDNO":"43","LocationName":"Down stream of Aggere bridge (Sakamma badavane)","ZONE":"West","_folder":"flood_vulnerable_locations"}},{"type":"Feature","geometry":{"type":"Point","coordinates":[77.679167,13.011389]},"properties":{"WARD_NAME":"Vijnanapura","WARDNO":"51","LocationName":"Koudenahalli (Ramamurthy Nagar main road)","ZONE":"Mahadevapura","_folder":"flood_vulnerable_locations"}},{"type":"Feature","geometry":{"type":"Point","coordinates":[77.51178,13.01264]},"properties":{"WARD_NAME":"Rajagopal Nagar","WARDNO":"70","LocationName":"Government School & Durgalamma Temple","ZONE":"Dasarahalli","_folder":"flood_vulnerable_locations"}},{"type":"Feature","geometry":{"type":"Point","coordinates":[77.678889,13.012778]},"properties":{"WARD_NAME":"Rammurthynagar","WARDNO":"26","LocationName":"NRI layout","ZONE":"Mahadevapura","_folder":"flood_vulnerable_locations"}},{"type":"Feature","geometry":{"type":"Point","coordinates":[77.561389,13.012895]},"properties":{"WARD_NAME":"Malleshwaram","WARDNO":"45","LocationName":"Near Yashavanthpur TTMC","ZONE":"West","_folder":"flood_vulnerable_locations"}},{"type":"Feature","geometry":{"type":"Point","coordinates":[77.665556,13.018611]},"properties":{"WARD_NAME":"Horamavu","WARDNO":"25","LocationName":"Hoysala nagar in Hormavu","ZONE":"Mahadevapura","_folder":"flood_vulnerable_locations"}},{"type":"Feature","geometry":{"type":"Point","coordinates":[77.634722,13.018889]},"properties":{"WARD_NAME":"Kacharakanahalli","WARDNO":"29","LocationName":"HRBR Lyt","ZONE":"East","_folder":"flood_vulnerable_locations"}},{"type":"Feature","geometry":{"type":"Point","coordinates":[77.5825,13.024722]},"properties":{"WARD_NAME":"Ganganagar","WARDNO":"20","LocationName":"Jala Dharshani Layout of Hebbal","ZONE":"East","_folder":"flood_vulnerable_locations"}},{"type":"Feature","geometry":{"type":"Point","coordinates":[77.584636,13.029777]},"properties":{"WARD_NAME":"Ganganagar","WARDNO":"20","LocationName":"Vasanthappa block  Hebbal","ZONE":"East","_folder":"flood_vulnerable_locations"}},{"type":"Feature","geometry":{"type":"Point","coordinates":[77.520142,13.033097]},"properties":{"WARD_NAME":"HMT","WARDNO":"38","LocationName":"Peenya industrial  area 3rd phase 1st  main road","ZONE":"RR Nagar","_folder":"flood_vulnerable_locations"}},{"type":"Feature","geometry":{"type":"Point","coordinates":[77.490582,13.033173]},"properties":{"WARD_NAME":"Dodda Bidarakallu","WARDNO":"40","LocationName":"Bhavani nagara Doddabidarakallu","ZONE":"RR Nagar","_folder":"flood_vulnerable_locations"}},{"type":"Feature","geometry":{"type":"Point","coordinates":[77.590278,13.033333]},"properties":{"WARD_NAME":"Hebbala","WARDNO":"21","LocationName":"A Block of  Hebbal","ZONE":"East","_folder":"flood_vulnerable_locations"}},{"type":"Feature","geometry":{"type":"Point","coordinates":[77.600278,13.033333]},"properties":{"WARD_NAME":"Hebbala","WARDNO":"21","LocationName":"Low Laying areas of Chamundi nagar of Hebbal","ZONE":"East","_folder":"flood_vulnerable_locations"}},{"type":"Feature","geometry":{"type":"Point","coordinates":[77.597222,13.035556]},"properties":{"WARD_NAME":"Hebbala","WARDNO":"21","LocationName":"Sun Rise colony of Hebbal","ZONE":"East","_folder":"flood_vulnerable_locations"}},{"type":"Feature","geometry":{"type":"Point","coordinates":[77.681111,13.036667]},"properties":{"WARD_NAME":"Rammurthynagar","WARDNO":"26","LocationName":"Richi's Garden","ZONE":"Mahadevapura","_folder":"flood_vulnerable_locations"}},{"type":"Feature","geometry":{"type":"Point","coordinates":[77.487117,13.036698]},"properties":{"WARD_NAME":"Dodda Bidarakallu","WARDNO":"40","LocationName":"Andanappa layout Doddabidarakallu","ZONE":"RR Nagar","_folder":"flood_vulnerable_locations"}},{"type":"Feature","geometry":{"type":"Point","coordinates":[77.556706,13.036736]},"properties":{"WARD_NAME":"J P Park","WARDNO":"17","LocationName":"Near bescom office Mattikere","ZONE":"West","_folder":"flood_vulnerable_locations"}},{"type":"Feature","geometry":{"type":"Point","coordinates":[77.638056,13.039167]},"properties":{"WARD_NAME":"HBR Layout","WARDNO":"24","LocationName":"HBR Layout","ZONE":"East","_folder":"flood_vulnerable_locations"}},{"type":"Feature","geometry":{"type":"Point","coordinates":[77.519926,13.039729]},"properties":{"WARD_NAME":"HMT","WARDNO":"38","LocationName":"Near Jalahalli Metro station","ZONE":"RR Nagar","_folder":"flood_vulnerable_locations"}},{"type":"Feature","geometry":{"type":"Point","coordinates":[77.612222,13.041111]},"properties":{"WARD_NAME":"Nagavara","WARDNO":"23","LocationName":"Veerannapalya","ZONE":"East","_folder":"flood_vulnerable_locations"}},{"type":"Feature","geometry":{"type":"Point","coordinates":[77.47808,13.04137]},"properties":{"WARDNO":"40","LocationName":"Shambhavinagar","ZONE":"Dasarahalli","_folder":"flood_vulnerable_locations"}},{"type":"Feature","geometry":{"type":"Point","coordinates":[77.615556,13.0425]},"properties":{"WARD_NAME":"Thanisandra","WARDNO":"6","LocationName":"Veerannapalya drain near Manpho convention center","ZONE":"Yelahanka","_folder":"flood_vulnerable_locations"}},{"type":"Feature","geometry":{"type":"Point","coordinates":[77.591389,13.0425]},"properties":{"WARD_NAME":"Byatarayanapura","WARDNO":"7","LocationName":"Near Shani mahathma temple beside Hebbal Flyover","ZONE":"East","_folder":"flood_vulnerable_locations"}},{"type":"Feature","geometry":{"type":"Point","coordinates":[77.644722,13.042778]},"properties":{"WARD_NAME":"Horamavu","WARDNO":"25","LocationName":"Vaddera Palya (Railway track)","ZONE":"Mahadevapura","_folder":"flood_vulnerable_locations"}},{"type":"Feature","geometry":{"type":"Point","coordinates":[77.598889,13.043056]},"properties":{"WARD_NAME":"Byatarayanapura","WARDNO":"7","LocationName":"Kariyannapalya outer ring road, near Varun motors","ZONE":"Yelahanka","_folder":"flood_vulnerable_locations"}},{"type":"Feature","geometry":{"type":"Point","coordinates":[77.628056,13.043611]},"properties":{"WARD_NAME":"HBR Layout","WARDNO":"24","LocationName":"Nanda gokula","ZONE":"East","_folder":"flood_vulnerable_locations"}},{"type":"Feature","geometry":{"type":"Point","coordinates":[77.600278,13.043611]},"properties":{"WARD_NAME":"Byatarayanapura","WARDNO":"7","LocationName":"Kariyannapalya Bridge over flowed ORR","ZONE":"Yelahanka","_folder":"flood_vulnerable_locations"}},{"type":"Feature","geometry":{"type":"Point","coordinates":[77.570833,13.046667]},"properties":{"WARD_NAME":"Radhakrishna Temple","WARDNO":"18","LocationName":"Upstreams of Devinagar (junction of Ring road and railway track)  of Hebbal","ZONE":"East","_folder":"flood_vulnerable_locations"}},{"type":"Feature","geometry":{"type":"Point","coordinates":[77.50074,13.04681]},"properties":{"WARD_NAME":"Chokkasandra","WARDNO":"39","LocationName":"Gundappa Layout & Belmar Layout","ZONE":"Dasarahalli","_folder":"flood_vulnerable_locations"}},{"type":"Feature","geometry":{"type":"Point","coordinates":[77.623611,13.047222]},"properties":{"WARD_NAME":"Thanisandra","WARDNO":"6","LocationName":"Manyata tech park, MS Ramaiah north city To element mall","ZONE":"Yelahanka","_folder":"flood_vulnerable_locations"}},{"type":"Feature","geometry":{"type":"Point","coordinates":[77.593333,13.047222]},"properties":{"WARD_NAME":"Byatarayanapura","WARDNO":"7","LocationName":"From Esteem mall beside Dhobi Ghat to Yogesh nagar bridge","ZONE":"Yelahanka","_folder":"flood_vulnerable_locations"}},{"type":"Feature","geometry":{"type":"Point","coordinates":[77.571667,13.055]},"properties":{"WARD_NAME":"Kodigehalli","WARDNO":"8","LocationName":"TATA nagar 8th cross","ZONE":"Yelahanka","_folder":"flood_vulnerable_locations"}},{"type":"Feature","geometry":{"type":"Point","coordinates":[77.614722,13.057778]},"properties":{"WARD_NAME":"Thanisandra","WARDNO":"6","LocationName":"Near Rachanahalli lake inlet","ZONE":"Yelahanka","_folder":"flood_vulnerable_locations"}},{"type":"Feature","geometry":{"type":"Point","coordinates":[77.51178,13.06068]},"properties":{"WARD_NAME":"Shettihalli","WARDNO":"12","LocationName":"Aaimatha layout, Mallasandra","ZONE":"Dasarahalli","_folder":"flood_vulnerable_locations"}},{"type":"Feature","geometry":{"type":"Point","coordinates":[77.50116,13.06087]},"properties":{"WARD_NAME":"Bagalakunte","WARDNO":"14","LocationName":"MEI layout","ZONE":"Dasarahalli","_folder":"flood_vulnerable_locations"}},{"type":"Feature","geometry":{"type":"Point","coordinates":[77.53471,13.06407]},"properties":{"WARD_NAME":"Kuvempu Nagar","WARDNO":"11","LocationName":"Kammagondanahalli near MNTI Polytechnic","ZONE":"Dasarahalli","_folder":"flood_vulnerable_locations"}},{"type":"Feature","geometry":{"type":"Point","coordinates":[77.51178,13.06634]},"properties":{"WARD_NAME":"Shettihalli","WARDNO":"12","LocationName":"Shettihalli & Chikkasandra Village","ZONE":"Dasarahalli","_folder":"flood_vulnerable_locations"}},{"type":"Feature","geometry":{"type":"Point","coordinates":[77.50065,13.06724]},"properties":{"WARD_NAME":"Bagalakunte","WARDNO":"14","LocationName":"Siddeswara Layout","ZONE":"Dasarahalli","_folder":"flood_vulnerable_locations"}},{"type":"Feature","geometry":{"type":"Point","coordinates":[77.50065,13.06724]},"properties":{"WARD_NAME":"Bagalakunte","WARDNO":"14","LocationName":"Shivapura tank","ZONE":"Dasarahalli","_folder":"flood_vulnerable_locations"}},{"type":"Feature","geometry":{"type":"Point","coordinates":[77.562778,13.069167]},"properties":{"WARD_NAME":"Vidyaranyapura","WARDNO":"9","LocationName":"Thindlu  to Doddabommasandra tank","ZONE":"Yelahanka","_folder":"flood_vulnerable_locations"}},{"type":"Feature","geometry":{"type":"Point","coordinates":[77.593611,13.0925]},"properties":{"WARD_NAME":"Yelahanka Satellite Town","WARDNO":"4","LocationName":"LBSnagar Yelahanka","ZONE":"Yelahanka","_folder":"flood_vulnerable_locations"}},{"type":"Feature","geometry":{"type":"Point","coordinates":[77.601111,13.103056]},"properties":{"WARD_NAME":"Kempegowda","WARDNO":"1","LocationName":"Kogilu cross behind Udupi Grand hotel","ZONE":"Yelahanka","_folder":"flood_vulnerable_locations"}},{"type":"Feature","geometry":{"type":"Point","coordinates":[77.593333,13.110278]},"properties":{"WARD_NAME":"Kempegowda","WARDNO":"1","LocationName":"Kondappa layout","ZONE":"Yelahanka","_folder":"flood_vulnerable_locations"}}]}