{"type":"FeatureCollection","name":"gba_boundary","source":"OpenCity resource 53329777-285d-43d6-b2cf-dd54900d4dc6","description":"Greater Bengaluru Authority boundary","features":[{"type":"Feature","geometry":{"type":"Polygon","coordinates":[[[77.573793,12.838975],[77.573138,12.839131],[77.572295,12.839173],[77.571074,12.839234],[77.5708,12.839255],[77.570424,12.839287],[77.570338,12.839295],[77.569198,12.839393],[77.568544,12.839449],[77.566787,12.839574],[77.566703,12.839582],[77.566668,12.839585],[77.566426,12.839609],[77.565681,12.83968],[77.564906,12.839538],[77.563309,12.839245],[77.562199,12.83902],[77.560721,12.83991],[77.560504,12.84004],[77.559982,12.84032],[77.558245,12.841114],[77.557279,12.841534],[77.557293,12.843132],[77.557278,12.843242],[77.55718,12.843933],[77.556465,12.844978],[77.555923,12.845999],[77.555476,12.846785],[77.554952,12.847673],[77.554482,12.848012],[77.554128,12.847942],[77.553246,12.847769],[77.553262,12.847543],[77.553034,12.847136],[77.552023,12.847488],[77.551931,12.847554],[77.551427,12.847915],[77.551398,12.847938],[77.551369,12.847961],[77.550423,12.847932],[77.550016,12.847919],[77.549485,12.847903],[77.548911,12.847876],[77.548097,12.847838],[77.545713,12.847738],[77.545006,12.847699],[77.544865,12.847691],[77.544873,12.847597],[77.544683,12.847616],[77.544651,12.8474],[77.544358,12.84699],[77.544495,12.846729],[77.544576,12.846312],[77.544389,12.845279],[77.544314,12.844369],[77.543724,12.844055],[77.543275,12.843731],[77.542775,12.843371],[77.542253,12.843287],[77.541677,12.843325],[77.541486,12.843533],[77.541265,12.844273],[77.541262,12.844276],[77.541272,12.844287],[77.541262,12.844276],[77.540492,12.844962],[77.539045,12.845319],[77.538334,12.845304],[77.538346,12.844891],[77.538162,12.844232],[77.537931,12.84341],[77.537877,12.842468],[77.537575,12.841737],[77.53678,12.841486],[77.535784,12.841169],[77.535108,12.840954],[77.534526,12.840451],[77.533914,12.839924],[77.533612,12.839909],[77.533434,12.839702],[77.531281,12.840051],[77.53097,12.840091],[77.52909,12.840321],[77.526057,12.840642],[77.524462,12.840212],[77.524206,12.840141],[77.523518,12.839945],[77.523245,12.841232],[77.523124,12.841799],[77.522955,12.842528],[77.522868,12.842905],[77.522772,12.8434],[77.522705,12.843765],[77.522542,12.844411],[77.522503,12.844565],[77.522417,12.844856],[77.522394,12.844934],[77.522288,12.845292],[77.522263,12.845409],[77.5217,12.848077],[77.521681,12.848167],[77.521674,12.848201],[77.521641,12.84836],[77.521628,12.848542],[77.5216,12.84893],[77.521495,12.849107],[77.52126,12.849634],[77.521032,12.850146],[77.520995,12.850243],[77.520857,12.850603],[77.520175,12.852373],[77.519682,12.853641],[77.519508,12.85409],[77.51921,12.854856],[77.519148,12.855],[77.519087,12.855544],[77.518975,12.856546],[77.518839,12.85777],[77.518747,12.858424],[77.518638,12.859265],[77.51858,12.859721],[77.51854,12.860037],[77.518521,12.860184],[77.518496,12.860386],[77.518459,12.860688],[77.518418,12.861076],[77.518409,12.861166],[77.518909,12.861654],[77.519448,12.862043],[77.519551,12.862118],[77.519571,12.862305],[77.519592,12.862489],[77.519728,12.863734],[77.519754,12.863965],[77.52022,12.866343],[77.522919,12.870559],[77.522982,12.870566],[77.522039,12.871126],[77.520875,12.871817],[77.520267,12.872178],[77.519437,12.87179],[77.518577,12.870916],[77.51729,12.869598],[77.516368,12.868804],[77.516351,12.868515],[77.516717,12.868486],[77.516794,12.866637],[77.515571,12.862606],[77.516098,12.862399],[77.515925,12.861679],[77.515475,12.860985],[77.515843,12.860597],[77.515827,12.859326],[77.516535,12.858489],[77.516545,12.857849],[77.503842,12.857865],[77.504294,12.860014],[77.505069,12.860153],[77.506029,12.861271],[77.506899,12.863467],[77.506783,12.864301],[77.50877,12.865158],[77.49912,12.871792],[77.497995,12.872785],[77.497578,12.872149],[77.497022,12.870629],[77.496612,12.868753],[77.496221,12.868718],[77.495319,12.868516],[77.491878,12.868434],[77.49157,12.868533],[77.490963,12.868864],[77.489864,12.86851],[77.490107,12.865362],[77.487775,12.864789],[77.487061,12.864758],[77.486763,12.864252],[77.485565,12.862777],[77.485356,12.862354],[77.485377,12.861828],[77.485325,12.861601],[77.485318,12.861309],[77.485392,12.860736],[77.48557,12.86019],[77.485529,12.860191],[77.48301,12.860803],[77.482988,12.860728],[77.482907,12.860749],[77.482926,12.860824],[77.482847,12.860843],[77.482904,12.861077],[77.480969,12.861543],[77.480568,12.861517],[77.480226,12.860986],[77.478365,12.862106],[77.478235,12.86189],[77.477753,12.862141],[77.478307,12.862887],[77.479211,12.863799],[77.48101,12.862777],[77.482247,12.864475],[77.476716,12.865229],[77.476972,12.865883],[77.477087,12.866088],[77.477184,12.86621],[77.477457,12.866452],[77.477635,12.866656],[77.477564,12.866632],[77.47746,12.866636],[77.477313,12.866685],[77.477263,12.866751],[77.477241,12.866755],[77.477209,12.866686],[77.477191,12.866661],[77.476925,12.866288],[77.476559,12.866731],[77.476016,12.866759],[77.475984,12.867252],[77.476393,12.867345],[77.47647,12.867748],[77.476426,12.868418],[77.478171,12.868471],[77.478033,12.868639],[77.477717,12.869776],[77.477495,12.871444],[77.47749,12.872032],[77.477638,12.872031],[77.477748,12.877933],[77.475706,12.878171],[77.475594,12.87826],[77.475708,12.878442],[77.475827,12.87843],[77.47565,12.878826],[77.475454,12.879102],[77.475113,12.87956],[77.474958,12.879779],[77.474824,12.880048],[77.474865,12.880417],[77.474943,12.880677],[77.475158,12.88095],[77.47565,12.881311],[77.476068,12.881612],[77.476183,12.881682],[77.476527,12.882001],[77.476934,12.882369],[77.477355,12.882748],[77.477547,12.883006],[77.477945,12.883395],[77.478265,12.883787],[77.478507,12.884107],[77.478711,12.884277],[77.478902,12.88445],[77.47898,12.884622],[77.479018,12.884683],[77.479006,12.884745],[77.479007,12.884819],[77.478958,12.884992],[77.478885,12.88524],[77.478898,12.885302],[77.4789,12.885562],[77.478876,12.885624],[77.478839,12.885699],[77.478802,12.885761],[77.478752,12.885823],[77.47874,12.885898],[77.478728,12.885985],[77.478741,12.886058],[77.478767,12.88612],[77.478856,12.886169],[77.478945,12.886205],[77.479109,12.886229],[77.479336,12.886227],[77.4795,12.886175],[77.479776,12.886086],[77.480141,12.885947],[77.48057,12.885943],[77.480697,12.885954],[77.48076,12.885953],[77.480924,12.885964],[77.481126,12.88595],[77.481454,12.885897],[77.481813,12.885845],[77.481965,12.885819],[77.482078,12.885756],[77.482495,12.885752],[77.482633,12.885763],[77.48285,12.885946],[77.482927,12.886094],[77.482967,12.886291],[77.482968,12.886402],[77.482867,12.886658],[77.482707,12.887105],[77.482509,12.887552],[77.482456,12.887779],[77.482376,12.888122],[77.482243,12.888778],[77.482009,12.8893],[77.481842,12.889556],[77.481729,12.889632],[77.481592,12.889756],[77.481404,12.889943],[77.481342,12.890031],[77.481254,12.890081],[77.481128,12.890132],[77.481053,12.890145],[77.481001,12.890146],[77.480787,12.890148],[77.480699,12.890124],[77.48056,12.890075],[77.480471,12.890026],[77.480344,12.889978],[77.480217,12.889893],[77.479989,12.889759],[77.479685,12.889699],[77.479546,12.889701],[77.47942,12.889714],[77.479307,12.88979],[77.479272,12.89],[77.479262,12.890273],[77.479266,12.890682],[77.479217,12.891248],[77.479218,12.891293],[77.479212,12.891466],[77.479204,12.891721],[77.479203,12.891757],[77.479205,12.891807],[77.479205,12.891858],[77.479199,12.891908],[77.479181,12.891957],[77.479091,12.892138],[77.47907,12.892172],[77.479042,12.892198],[77.479006,12.892227],[77.478943,12.89226],[77.478895,12.892288],[77.478848,12.892317],[77.478806,12.892347],[77.478775,12.892376],[77.478737,12.892403],[77.478704,12.892433],[77.478671,12.892461],[77.478615,12.892517],[77.478558,12.892543],[77.478523,12.892566],[77.478481,12.892589],[77.47843,12.892615],[77.478392,12.892643],[77.478355,12.892664],[77.478314,12.892678],[77.478274,12.892701],[77.478228,12.892736],[77.47818,12.892777],[77.478131,12.892814],[77.478098,12.892844],[77.478013,12.892879],[77.477832,12.893024],[77.477795,12.893063],[77.477717,12.893206],[77.477589,12.893372],[77.477504,12.893448],[77.477435,12.893509],[77.477402,12.893557],[77.477295,12.8937],[77.477214,12.89384],[77.47716,12.893921],[77.477084,12.89402],[77.477048,12.894087],[77.477017,12.894155],[77.476994,12.894209],[77.476949,12.894263],[77.476863,12.894344],[77.476791,12.894425],[77.476737,12.894471],[77.476641,12.894503],[77.476573,12.894472],[77.476422,12.894442],[77.47622,12.894319],[77.476146,12.894266],[77.476022,12.894218],[77.475862,12.894197],[77.475739,12.894207],[77.475662,12.894235],[77.475585,12.894276],[77.475522,12.894344],[77.47549,12.894424],[77.475469,12.894532],[77.475456,12.894617],[77.475466,12.894689],[77.475489,12.894773],[77.475531,12.894849],[77.475668,12.895264],[77.475867,12.895593],[77.476111,12.895797],[77.476337,12.895932],[77.476578,12.896069],[77.477333,12.896505],[77.477109,12.896655],[77.47669,12.896999],[77.475443,12.897658],[77.475166,12.897852],[77.474693,12.898134],[77.474111,12.898314],[77.473359,12.898403],[77.472466,12.896947],[77.472395,12.896825],[77.47131,12.895477],[77.470221,12.894095],[77.469584,12.892485],[77.469381,12.891925],[77.468783,12.889895],[77.468758,12.889812],[77.468368,12.888477],[77.467795,12.889323],[77.466804,12.890549],[77.465861,12.89181],[77.465796,12.891899],[77.465045,12.893002],[77.464316,12.894134],[77.463308,12.895597],[77.462173,12.897285],[77.462246,12.89735],[77.462231,12.897373],[77.462103,12.897565],[77.462032,12.89767],[77.461949,12.897848],[77.461819,12.898126],[77.461543,12.89872],[77.460677,12.898499],[77.460685,12.899329],[77.460713,12.90003],[77.460316,12.900195],[77.460282,12.900209],[77.4602,12.900387],[77.460156,12.901633],[77.460128,12.903042],[77.460139,12.904109],[77.460131,12.904765],[77.460051,12.905067],[77.460317,12.906611],[77.46079,12.906578],[77.462226,12.906442],[77.463718,12.906483],[77.465081,12.906587],[77.466672,12.906878],[77.466676,12.907363],[77.466623,12.907946],[77.466596,12.908357],[77.466499,12.910147],[77.467214,12.911258],[77.468189,12.912292],[77.468699,12.913026],[77.468968,12.913414],[77.469254,12.913986],[77.469439,12.914359],[77.470027,12.915129],[77.470209,12.915882],[77.470437,12.916763],[77.470653,12.917595],[77.47084,12.91834],[77.470902,12.918572],[77.471497,12.920364],[77.471769,12.921218],[77.472045,12.922172],[77.472196,12.922621],[77.472434,12.923483],[77.472594,12.924099],[77.472762,12.924746],[77.472899,12.925361],[77.473144,12.926458],[77.473192,12.926664],[77.474822,12.92668],[77.475887,12.926696],[77.477397,12.92647],[77.478234,12.926285],[77.479595,12.925917],[77.479608,12.925938],[77.479652,12.926055],[77.479618,12.926127],[77.479623,12.926218],[77.479705,12.926312],[77.479733,12.926399],[77.479706,12.92646],[77.479552,12.92651],[77.479475,12.926564],[77.47938,12.926724],[77.479259,12.926904],[77.479109,12.927015],[77.479086,12.927064],[77.479095,12.927159],[77.479119,12.927227],[77.479201,12.927329],[77.47936,12.927399],[77.479523,12.927488],[77.479659,12.927533],[77.479821,12.927546],[77.479953,12.927549],[77.480065,12.92757],[77.480177,12.927581],[77.480263,12.927641],[77.480871,12.927434],[77.480987,12.927406],[77.481179,12.927749],[77.481231,12.927912],[77.481244,12.928003],[77.481345,12.928074],[77.481461,12.928129],[77.481645,12.928378],[77.481831,12.928804],[77.481917,12.928913],[77.482037,12.928946],[77.482223,12.928948],[77.482316,12.928955],[77.48252,12.929271],[77.482602,12.929515],[77.482675,12.929732],[77.482872,12.93014],[77.482971,12.930321],[77.483122,12.930444],[77.483201,12.930603],[77.483229,12.93069],[77.483204,12.930876],[77.483082,12.93107],[77.483021,12.931165],[77.482895,12.931261],[77.483031,12.931343],[77.483224,12.931353],[77.483319,12.931344],[77.48347,12.93156],[77.483472,12.931842],[77.483316,12.932118],[77.483227,12.932229],[77.483235,12.93231],[77.483161,12.93243],[77.483087,12.932486],[77.483071,12.932497],[77.483073,12.932685],[77.483164,12.932782],[77.48321,12.932828],[77.483257,12.932813],[77.483313,12.932792],[77.483347,12.932821],[77.483388,12.932868],[77.483476,12.932898],[77.483529,12.932923],[77.483573,12.933255],[77.483564,12.933296],[77.48352,12.933422],[77.483634,12.933639],[77.483621,12.933936],[77.483645,12.933976],[77.48371,12.934082],[77.483781,12.934197],[77.483805,12.934238],[77.483823,12.93433],[77.483933,12.934896],[77.484042,12.935272],[77.484124,12.935805],[77.484101,12.935871],[77.484127,12.93616],[77.484044,12.936235],[77.48416,12.936478],[77.484138,12.936604],[77.484151,12.936708],[77.484181,12.936894],[77.484178,12.936894],[77.48384,12.93696],[77.483073,12.937066],[77.482385,12.937161],[77.482102,12.9372],[77.481734,12.937239],[77.481055,12.937309],[77.48103,12.937312],[77.480396,12.937366],[77.479348,12.937457],[77.47884,12.937508],[77.478774,12.937514],[77.478357,12.937562],[77.476916,12.938036],[77.476273,12.938309],[77.476391,12.938602],[77.476398,12.938617],[77.475916,12.938986],[77.475344,12.939425],[77.47519,12.93955],[77.475024,12.939685],[77.474961,12.939736],[77.474736,12.939915],[77.47446,12.940022],[77.473875,12.940215],[77.473635,12.940236],[77.473252,12.940333],[77.473718,12.941141],[77.47378,12.941274],[77.473975,12.941656],[77.474232,12.942115],[77.474318,12.942343],[77.47454,12.942969],[77.474745,12.943422],[77.474806,12.943976],[77.474836,12.944241],[77.474917,12.944648],[77.474932,12.944732],[77.47507,12.945468],[77.475156,12.945685],[77.475361,12.946384],[77.475536,12.946993],[77.475821,12.947633],[77.476279,12.948823],[77.47613,12.948895],[77.475778,12.949],[77.475524,12.949117],[77.47518,12.949112],[77.474945,12.949133],[77.474187,12.949202],[77.473703,12.949212],[77.473058,12.949328],[77.472731,12.949266],[77.472433,12.94955],[77.471059,12.949586],[77.471122,12.950725],[77.471231,12.950733],[77.471674,12.950764],[77.472142,12.950869],[77.472252,12.951065],[77.472374,12.951317],[77.472512,12.951601],[77.472513,12.951806],[77.471477,12.952268],[77.471561,12.952837],[77.471577,12.953073],[77.471637,12.953767],[77.471764,12.954098],[77.471891,12.954346],[77.471949,12.954634],[77.471966,12.954717],[77.471995,12.955043],[77.4721,12.955055],[77.472474,12.955949],[77.472858,12.956066],[77.473505,12.957108],[77.473821,12.957689],[77.474185,12.958359],[77.474256,12.95849],[77.474712,12.959467],[77.475105,12.960101],[77.475284,12.960389],[77.47441,12.961555],[77.474243,12.961778],[77.473722,12.962513],[77.473527,12.962789],[77.472913,12.96359],[77.472284,12.963671],[77.472485,12.964322],[77.472597,12.964681],[77.472998,12.965872],[77.473176,12.966403],[77.473485,12.966986],[77.473272,12.967102],[77.473926,12.96812],[77.474137,12.968506],[77.474525,12.96921],[77.474796,12.96959],[77.475017,12.970042],[77.475027,12.970324],[77.47504,12.970711],[77.47507,12.971594],[77.475075,12.971726],[77.47508,12.972207],[77.475085,12.97294],[77.475084,12.972967],[77.47508,12.972993],[77.474957,12.973761],[77.474923,12.973976],[77.474865,12.97435],[77.474837,12.975671],[77.474543,12.977793],[77.474433,12.978618],[77.474303,12.979588],[77.474269,12.979781],[77.474044,12.980625],[77.473996,12.980972],[77.473963,12.98112],[77.473941,12.981224],[77.473836,12.981729],[77.473793,12.982224],[77.473726,12.982479],[77.473454,12.983319],[77.473315,12.983588],[77.473278,12.98366],[77.473266,12.983679],[77.473063,12.984002],[77.472303,12.9848],[77.472259,12.984847],[77.471686,12.985123],[77.470857,12.985723],[77.470373,12.985988],[77.469803,12.9863],[77.468405,12.986709],[77.468682,12.987222],[77.469112,12.98802],[77.469311,12.988407],[77.46993,12.989631],[77.470005,12.98978],[77.47006,12.989872],[77.470087,12.989917],[77.470363,12.990654],[77.470551,12.991405],[77.470708,12.991901],[77.470821,12.992241],[77.471096,12.993303],[77.47133,12.993857],[77.47123,12.994236],[77.471253,12.994604],[77.471304,12.994699],[77.471657,12.99541],[77.471755,12.995461],[77.471807,12.995489],[77.47245,12.996806],[77.472882,12.996726],[77.473049,12.99731],[77.473167,12.997486],[77.473281,12.997882],[77.473489,12.9986],[77.473567,12.998871],[77.474202,12.999219],[77.474354,12.999849],[77.474535,13.000597],[77.474781,13.000746],[77.474849,13.001108],[77.475266,13.002557],[77.47542,13.003393],[77.475271,13.003414],[77.475194,13.003426],[77.47518,13.003999],[77.475171,13.004374],[77.474999,13.004865],[77.475007,13.004894],[77.475233,13.005701],[77.475362,13.006283],[77.475398,13.006447],[77.474894,13.006588],[77.474583,13.006707],[77.474219,13.006879],[77.474037,13.006932],[77.473308,13.007141],[77.472839,13.007268],[77.473121,13.008829],[77.473443,13.008762],[77.47374,13.009246],[77.473968,13.009618],[77.473989,13.009652],[77.474725,13.011208],[77.474839,13.011465],[77.474904,13.011609],[77.475239,13.013019],[77.475261,13.013114],[77.476371,13.014309],[77.476952,13.014872],[77.476984,13.01502],[77.477087,13.015508],[77.477117,13.015649],[77.477125,13.015748],[77.477164,13.016046],[77.477364,13.016957],[77.477471,13.017303],[77.478124,13.018514],[77.478372,13.019068],[77.478388,13.019203],[77.478693,13.020815],[77.47896,13.022007],[77.478963,13.022023],[77.478436,13.022158],[77.478421,13.022958],[77.478406,13.023786],[77.478439,13.024363],[77.478683,13.026253],[77.47875,13.026489],[77.479106,13.027709],[77.479607,13.029274],[77.479028,13.029771],[77.478479,13.030219],[77.478191,13.030488],[77.477858,13.030761],[77.477652,13.030935],[77.477285,13.031173],[77.477023,13.031466],[77.476939,13.031537],[77.477219,13.032073],[77.477646,13.032872],[77.47789,13.033328],[77.478239,13.033981],[77.478267,13.034028],[77.478523,13.034453],[77.478738,13.034832],[77.478841,13.035067],[77.479395,13.035405],[77.479898,13.035721],[77.479957,13.036244],[77.479999,13.036623],[77.480032,13.037185],[77.480065,13.037697],[77.480047,13.037906],[77.480748,13.038496],[77.481343,13.039557],[77.481733,13.03971],[77.482175,13.039883],[77.48257,13.04058],[77.482223,13.040829],[77.48192,13.041095],[77.481665,13.041177],[77.48155,13.041545],[77.481507,13.04168],[77.481458,13.042725],[77.481346,13.042913],[77.481064,13.043112],[77.480795,13.043224],[77.480491,13.043288],[77.480118,13.043332],[77.480027,13.043347],[77.480023,13.043375],[77.479885,13.043818],[77.479745,13.044163],[77.479572,13.044354],[77.479542,13.044481],[77.479512,13.044605],[77.479541,13.044905],[77.4796,13.045242],[77.479779,13.045145],[77.479821,13.045794],[77.479715,13.045916],[77.47953,13.046389],[77.479869,13.047494],[77.480005,13.047942],[77.48007,13.048462],[77.480075,13.048509],[77.480103,13.048506],[77.48013,13.048502],[77.480205,13.048494],[77.480393,13.048472],[77.480492,13.048459],[77.481444,13.048279],[77.482539,13.048021],[77.482649,13.047981],[77.484119,13.047452],[77.486113,13.046652],[77.48621,13.046594],[77.486244,13.046574],[77.487505,13.046253],[77.487725,13.046197],[77.488943,13.04586],[77.489118,13.045812],[77.489266,13.045762],[77.4897,13.045618],[77.490467,13.045265],[77.490992,13.045072],[77.491733,13.047268],[77.492026,13.048093],[77.492099,13.048925],[77.492174,13.050191],[77.492177,13.050374],[77.492203,13.050646],[77.492205,13.050676],[77.492465,13.051571],[77.492476,13.052187],[77.49248,13.052448],[77.492459,13.052782],[77.492423,13.053352],[77.492343,13.054619],[77.492219,13.054828],[77.491609,13.055858],[77.491532,13.055988],[77.491013,13.056879],[77.491002,13.05692],[77.490999,13.056969],[77.49104,13.057114],[77.491423,13.058463],[77.49197,13.059926],[77.491977,13.059944],[77.492007,13.060028],[77.492309,13.060864],[77.4926,13.061661],[77.49266,13.061827],[77.49272,13.062134],[77.493062,13.062121],[77.492992,13.062578],[77.492985,13.062605],[77.492902,13.062902],[77.492849,13.063376],[77.492762,13.063784],[77.492744,13.065513],[77.492732,13.066623],[77.492805,13.067755],[77.492833,13.068194],[77.492944,13.069915],[77.493032,13.071097],[77.493041,13.071216],[77.493106,13.072092],[77.49414,13.07204],[77.495066,13.071994],[77.496051,13.071946],[77.497206,13.071953],[77.497573,13.071957],[77.498586,13.071966],[77.499238,13.071963],[77.499459,13.071901],[77.499446,13.071892],[77.500255,13.07244],[77.501004,13.072636],[77.501433,13.072845],[77.501612,13.073049],[77.501888,13.073479],[77.502143,13.073869],[77.502341,13.074026],[77.502471,13.074165],[77.502637,13.074436],[77.502672,13.074575],[77.502707,13.074655],[77.502769,13.074707],[77.502999,13.074786],[77.503758,13.075207],[77.504108,13.075394],[77.504316,13.075739],[77.504481,13.075998],[77.50462,13.076209],[77.504796,13.076477],[77.505078,13.076706],[77.50533,13.076824],[77.505457,13.076932],[77.505722,13.07702],[77.50601,13.077422],[77.506332,13.077613],[77.506604,13.077762],[77.506899,13.077892],[77.507369,13.077949],[77.507484,13.077912],[77.507708,13.077823],[77.508074,13.077784],[77.50861,13.077724],[77.508782,13.077771],[77.508963,13.077976],[77.509082,13.077693],[77.50914,13.077583],[77.509222,13.077485],[77.509271,13.077455],[77.50932,13.077436],[77.509353,13.077409],[77.509359,13.077367],[77.509358,13.077225],[77.509374,13.077192],[77.509417,13.077166],[77.509443,13.077153],[77.509479,13.077123],[77.509511,13.077062],[77.509556,13.076903],[77.509565,13.076854],[77.509598,13.076831],[77.509644,13.076818],[77.509799,13.076787],[77.509882,13.07678],[77.509941,13.076744],[77.509996,13.076698],[77.510139,13.07647],[77.510432,13.076155],[77.510599,13.076053],[77.510685,13.076029],[77.510754,13.076013],[77.51081,13.07598],[77.510882,13.075927],[77.510987,13.075852],[77.511271,13.075603],[77.511307,13.07558],[77.511379,13.07565],[77.511462,13.075821],[77.511489,13.075816],[77.511842,13.07575],[77.511936,13.075734],[77.512368,13.075654],[77.512541,13.07559],[77.513077,13.07555],[77.514288,13.075158],[77.514442,13.075356],[77.514614,13.075309],[77.515421,13.07508],[77.516148,13.074865],[77.517027,13.074545],[77.517971,13.074254],[77.518126,13.074946],[77.518262,13.075504],[77.518255,13.075672],[77.518217,13.076548],[77.518212,13.076702],[77.518282,13.076937],[77.518532,13.077725],[77.518594,13.077877],[77.518681,13.078089],[77.518709,13.078187],[77.518784,13.078449],[77.518795,13.078487],[77.518836,13.078639],[77.518845,13.078667],[77.518905,13.07911],[77.51898,13.079665],[77.519143,13.07962],[77.519419,13.079358],[77.519472,13.07935],[77.519501,13.079346],[77.519629,13.079437],[77.520883,13.079151],[77.521137,13.07996],[77.521213,13.080205],[77.521281,13.080405],[77.52171,13.080382],[77.522067,13.080352],[77.522243,13.080547],[77.522716,13.080782],[77.522849,13.08096],[77.523222,13.080925],[77.523299,13.081508],[77.523414,13.08158],[77.523566,13.082792],[77.523586,13.082875],[77.523578,13.083446],[77.523578,13.083446],[77.523542,13.083574],[77.52353,13.08396],[77.523514,13.084459],[77.52347,13.08517],[77.523436,13.086038],[77.523436,13.086561],[77.523448,13.088114],[77.523534,13.089671],[77.523617,13.090557],[77.523656,13.090993],[77.523664,13.091655],[77.523769,13.092942],[77.523779,13.093068],[77.52642,13.092875],[77.528618,13.092609],[77.528886,13.092587],[77.529498,13.092468],[77.530043,13.092415],[77.532829,13.092245],[77.533996,13.092159],[77.534336,13.09213],[77.534394,13.092137],[77.534824,13.091287],[77.535452,13.090174],[77.537248,13.090095],[77.538024,13.09006],[77.538543,13.090036],[77.539462,13.090007],[77.540714,13.089973],[77.540723,13.089969],[77.540781,13.090074],[77.54078,13.090258],[77.540775,13.091883],[77.541633,13.093187],[77.542205,13.094295],[77.542455,13.095569],[77.542457,13.09558],[77.542395,13.095658],[77.543344,13.097979],[77.543382,13.098178],[77.543424,13.098318],[77.543968,13.099737],[77.544081,13.100103],[77.544224,13.100382],[77.544316,13.100564],[77.544429,13.100788],[77.544245,13.100803],[77.544229,13.101319],[77.544547,13.101315],[77.544901,13.101381],[77.545174,13.101274],[77.545634,13.101291],[77.54601,13.101247],[77.546362,13.10121],[77.546741,13.101175],[77.54715,13.101177],[77.547656,13.101095],[77.548072,13.101031],[77.548505,13.101009],[77.548893,13.101031],[77.549662,13.101032],[77.550288,13.100965],[77.55079,13.10095],[77.551047,13.100839],[77.551224,13.100829],[77.551593,13.100858],[77.551927,13.100822],[77.552457,13.10068],[77.553939,13.10049],[77.554608,13.100404],[77.555076,13.100343],[77.555138,13.100445],[77.555215,13.10046],[77.555551,13.100315],[77.555612,13.100408],[77.555775,13.100349],[77.55616,13.100225],[77.556552,13.10071],[77.556945,13.10058],[77.55733,13.100416],[77.557462,13.100734],[77.557129,13.100872],[77.557295,13.101165],[77.557564,13.101424],[77.55785,13.101682],[77.55817,13.102092],[77.558294,13.102264],[77.558388,13.102394],[77.558913,13.102903],[77.558985,13.103082],[77.559309,13.103313],[77.559353,13.103379],[77.559357,13.103386],[77.559149,13.103401],[77.558923,13.103344],[77.559027,13.104338],[77.559159,13.10459],[77.559339,13.104871],[77.559446,13.105037],[77.55959,13.105311],[77.559716,13.105603],[77.559958,13.105845],[77.559958,13.105845],[77.560127,13.106177],[77.560299,13.106581],[77.560409,13.106774],[77.560516,13.107017],[77.560516,13.107017],[77.560542,13.107076],[77.560553,13.107104],[77.56066,13.107367],[77.560703,13.107469],[77.560951,13.107932],[77.561078,13.108317],[77.561086,13.108344],[77.561095,13.10837],[77.56096,13.108917],[77.560535,13.109035],[77.560047,13.10931],[77.560049,13.109554],[77.560122,13.109832],[77.560284,13.11056],[77.560313,13.111151],[77.560223,13.111535],[77.56013,13.111744],[77.559812,13.111794],[77.55971,13.1119],[77.559675,13.112111],[77.559814,13.112403],[77.559833,13.112404],[77.560089,13.112359],[77.560403,13.112959],[77.561062,13.113775],[77.56144,13.11376],[77.561608,13.113767],[77.561627,13.113817],[77.56167,13.11391],[77.561683,13.113937],[77.562354,13.115564],[77.562582,13.116341],[77.562574,13.1164],[77.562687,13.116345],[77.562687,13.116345],[77.562574,13.1164],[77.562568,13.116447],[77.562837,13.117753],[77.563119,13.119385],[77.563264,13.120516],[77.56339,13.120939],[77.563646,13.12144],[77.563868,13.121875],[77.564308,13.122928],[77.564742,13.124114],[77.564957,13.124629],[77.565175,13.125152],[77.56551,13.125955],[77.568167,13.125298],[77.568255,13.12528],[77.569573,13.125005],[77.56988,13.126907],[77.569939,13.127443],[77.570279,13.128911],[77.57044,13.129486],[77.570718,13.130818],[77.570845,13.131006],[77.570845,13.131006],[77.570868,13.131039],[77.571317,13.133296],[77.571334,13.133936],[77.571576,13.134626],[77.571766,13.135267],[77.571911,13.135973],[77.57198,13.135977],[77.572018,13.135972],[77.572227,13.135897],[77.572352,13.136114],[77.572384,13.136252],[77.572568,13.136243],[77.572653,13.136249],[77.572789,13.136324],[77.572797,13.136321],[77.572938,13.136261],[77.573426,13.136089],[77.573519,13.136387],[77.57367,13.136943],[77.573671,13.136949],[77.573821,13.137727],[77.57384,13.137858],[77.573928,13.138426],[77.573966,13.138679],[77.573998,13.139071],[77.573986,13.139522],[77.573955,13.139639],[77.573934,13.139728],[77.574005,13.140488],[77.57404,13.141],[77.574027,13.141203],[77.5744,13.141336],[77.57438,13.141442],[77.57425,13.141561],[77.575142,13.141638],[77.575177,13.141646],[77.575212,13.141652],[77.575607,13.141736],[77.57608,13.141841],[77.576725,13.141985],[77.57727,13.142102],[77.577327,13.142115],[77.577793,13.142304],[77.578241,13.142454],[77.578659,13.142516],[77.579195,13.142566],[77.579999,13.14266],[77.581214,13.141335],[77.581398,13.141157],[77.582384,13.1402],[77.582698,13.13897],[77.582864,13.138281],[77.582922,13.138135],[77.582931,13.138108],[77.583114,13.137666],[77.583192,13.137474],[77.583389,13.136954],[77.583455,13.136781],[77.58361,13.136462],[77.583711,13.135805],[77.583716,13.135771],[77.583721,13.135737],[77.583826,13.1353],[77.584033,13.135192],[77.584086,13.134522],[77.584232,13.134247],[77.584337,13.13404],[77.584468,13.133862],[77.584544,13.133758],[77.584558,13.133728],[77.584573,13.133698],[77.584783,13.133258],[77.5849,13.133091],[77.585194,13.13282],[77.585194,13.13282],[77.585601,13.132693],[77.585895,13.132768],[77.585748,13.133305],[77.586213,13.133313],[77.586792,13.13336],[77.587365,13.13333],[77.587778,13.133309],[77.588572,13.133292],[77.589007,13.133285],[77.5891,13.133298],[77.591173,13.13323],[77.59442,13.132937],[77.596535,13.132776],[77.598021,13.132326],[77.598105,13.132298],[77.599663,13.131774],[77.601034,13.133355],[77.60182,13.134146],[77.604517,13.134163],[77.604498,13.133863],[77.607608,13.133817],[77.607573,13.133397],[77.610407,13.133308],[77.61201,13.13324],[77.613863,13.131643],[77.614564,13.131293],[77.614926,13.131121],[77.615207,13.131015],[77.61571,13.130981],[77.61571,13.130981],[77.616966,13.131014],[77.618529,13.130953],[77.618571,13.130953],[77.61954,13.130958],[77.62051,13.130434],[77.621916,13.129755],[77.623059,13.129161],[77.625029,13.128157],[77.625981,13.127532],[77.62618,13.127522],[77.626384,13.127451],[77.62666,13.127355],[77.628242,13.126825],[77.629173,13.126509],[77.630485,13.126039],[77.630584,13.125851],[77.63143,13.124547],[77.631826,13.123923],[77.632252,13.123253],[77.632689,13.12258],[77.632756,13.122477],[77.632792,13.122423],[77.633253,13.121712],[77.633541,13.121264],[77.634425,13.119886],[77.634564,13.11967],[77.635125,13.118822],[77.635654,13.117999],[77.6363,13.116955],[77.63641,13.116776],[77.636833,13.116149],[77.636998,13.115903],[77.637203,13.115597],[77.637274,13.115494],[77.637303,13.115448],[77.637369,13.115346],[77.638714,13.113271],[77.6384,13.1121],[77.638275,13.111635],[77.63807,13.110872],[77.637877,13.109913],[77.637831,13.10968],[77.637505,13.108393],[77.637183,13.107221],[77.637024,13.106416],[77.636991,13.106251],[77.638018,13.106197],[77.638279,13.106176],[77.638545,13.106155],[77.639338,13.105977],[77.639924,13.105829],[77.640031,13.105813],[77.640116,13.105806],[77.640834,13.105746],[77.640868,13.105745],[77.640901,13.105746],[77.641256,13.105636],[77.641404,13.10559],[77.641923,13.105485],[77.642286,13.105512],[77.642928,13.105488],[77.643075,13.105551],[77.643214,13.105555],[77.643804,13.105752],[77.644123,13.105698],[77.644208,13.105686],[77.645109,13.105566],[77.64576,13.105474],[77.647254,13.105264],[77.648168,13.10514],[77.649067,13.105023],[77.649929,13.104907],[77.650443,13.104806],[77.650322,13.104496],[77.649545,13.102749],[77.649556,13.102538],[77.64956,13.102472],[77.64934,13.102039],[77.64912,13.10163],[77.649113,13.101384],[77.64907,13.101073],[77.648842,13.10052],[77.648777,13.100345],[77.648565,13.099776],[77.648396,13.099324],[77.648226,13.098868],[77.648154,13.098679],[77.647706,13.098078],[77.647634,13.09789],[77.647533,13.097632],[77.647513,13.097558],[77.647298,13.096899],[77.647095,13.096249],[77.646734,13.095087],[77.646119,13.09393],[77.645101,13.091605],[77.644489,13.090354],[77.643351,13.088221],[77.64283,13.087071],[77.642752,13.086759],[77.643282,13.086652],[77.643584,13.086594],[77.644992,13.086411],[77.646131,13.086338],[77.646524,13.086147],[77.646597,13.085186],[77.646603,13.085152],[77.646832,13.084885],[77.64698,13.084703],[77.647118,13.084535],[77.647369,13.08423],[77.647481,13.084025],[77.64766,13.083872],[77.648006,13.083407],[77.648349,13.082971],[77.648417,13.082823],[77.648645,13.082548],[77.64892,13.08225],[77.649286,13.081757],[77.649548,13.081403],[77.649647,13.081341],[77.649672,13.081236],[77.649858,13.0813],[77.650132,13.081331],[77.650417,13.081367],[77.650827,13.081417],[77.651156,13.081451],[77.651553,13.081492],[77.65189,13.081541],[77.652228,13.081587],[77.652609,13.081622],[77.653224,13.081752],[77.65331,13.081737],[77.653535,13.081812],[77.654763,13.08197],[77.654857,13.081913],[77.654917,13.081537],[77.655001,13.081023],[77.655029,13.080851],[77.655079,13.08062],[77.655169,13.080206],[77.655269,13.079747],[77.655362,13.079317],[77.655421,13.07905],[77.655513,13.078644],[77.655521,13.078608],[77.655584,13.078336],[77.655682,13.077839],[77.655812,13.077181],[77.655984,13.076698],[77.656275,13.075876],[77.656344,13.075432],[77.656431,13.074863],[77.656532,13.07485],[77.657245,13.07377],[77.6578,13.073042],[77.658427,13.071513],[77.658666,13.070951],[77.658855,13.070476],[77.658873,13.07043],[77.659142,13.069738],[77.659727,13.068044],[77.660155,13.067725],[77.660731,13.06768],[77.661527,13.067453],[77.661802,13.067355],[77.662624,13.067065],[77.663595,13.066977],[77.665795,13.066205],[77.667022,13.065903],[77.667146,13.063946],[77.668714,13.065047],[77.670052,13.065955],[77.670993,13.065819],[77.67241,13.065613],[77.673095,13.065437],[77.673447,13.065352],[77.673439,13.065295],[77.673434,13.06526],[77.674085,13.065193],[77.674523,13.065057],[77.675093,13.064838],[77.675278,13.064858],[77.675905,13.064926],[77.675984,13.064941],[77.676062,13.064956],[77.67633,13.065059],[77.676537,13.065048],[77.676723,13.065094],[77.676926,13.065061],[77.677174,13.064957],[77.677093,13.064766],[77.676959,13.064468],[77.67683,13.064038],[77.676668,13.063585],[77.676856,13.063532],[77.67684,13.063258],[77.676837,13.062913],[77.676942,13.062903],[77.677327,13.062841],[77.67761,13.06279],[77.677646,13.062782],[77.677696,13.062764],[77.677801,13.062765],[77.678203,13.062744],[77.678236,13.062742],[77.678804,13.062736],[77.678968,13.062786],[77.678978,13.062818],[77.67899,13.062858],[77.679179,13.062574],[77.679505,13.061947],[77.679485,13.061257],[77.67933,13.060979],[77.679295,13.060522],[77.679295,13.060487],[77.679295,13.060452],[77.679293,13.060272],[77.679307,13.059862],[77.679333,13.059524],[77.679444,13.058583],[77.679397,13.058493],[77.679333,13.05837],[77.679178,13.058099],[77.679111,13.058005],[77.679002,13.058024],[77.678958,13.057822],[77.67907,13.057525],[77.679172,13.057541],[77.679213,13.057372],[77.67936,13.056527],[77.679373,13.05645],[77.679426,13.055768],[77.679404,13.055723],[77.679382,13.055679],[77.679308,13.055532],[77.679247,13.055485],[77.678899,13.055219],[77.678804,13.054887],[77.678757,13.054472],[77.678751,13.054431],[77.678745,13.05439],[77.6787,13.054101],[77.678659,13.053833],[77.678453,13.052704],[77.678371,13.052401],[77.678375,13.052347],[77.678375,13.052347],[77.678554,13.052363],[77.678663,13.052361],[77.678755,13.052361],[77.678862,13.052353],[77.678892,13.052353],[77.678921,13.052354],[77.679397,13.052388],[77.679939,13.052412],[77.680191,13.052247],[77.68058,13.05199],[77.680874,13.051838],[77.680968,13.051786],[77.68103,13.051752],[77.681063,13.051734],[77.681659,13.051249],[77.681691,13.051225],[77.681723,13.0512],[77.68266,13.050468],[77.683338,13.04995],[77.683606,13.04922],[77.684192,13.047504],[77.684453,13.046719],[77.684757,13.04581],[77.684945,13.04527],[77.684951,13.045166],[77.684927,13.044771],[77.684856,13.044018],[77.684872,13.043423],[77.684876,13.042907],[77.684842,13.042773],[77.684784,13.042407],[77.684679,13.041752],[77.684661,13.041625],[77.684601,13.041399],[77.684635,13.041086],[77.684616,13.040952],[77.684643,13.040924],[77.684586,13.040857],[77.684542,13.040718],[77.684474,13.040525],[77.684459,13.040433],[77.68448,13.040208],[77.684494,13.040161],[77.684385,13.039693],[77.684293,13.039399],[77.684261,13.038989],[77.684244,13.038759],[77.684153,13.03824],[77.684046,13.037704],[77.684029,13.037619],[77.683913,13.03733],[77.683913,13.03733],[77.68393,13.037141],[77.683933,13.036993],[77.683996,13.036675],[77.683884,13.036275],[77.683858,13.036064],[77.683822,13.035793],[77.68381,13.03554],[77.683794,13.035392],[77.68374,13.035195],[77.683738,13.034969],[77.683619,13.03476],[77.683614,13.034381],[77.683654,13.034177],[77.683631,13.033809],[77.683601,13.033617],[77.683595,13.033473],[77.683574,13.033225],[77.683539,13.03312],[77.683691,13.033206],[77.685106,13.03338],[77.686321,13.033501],[77.686569,13.033499],[77.686689,13.03349],[77.686881,13.033476],[77.687032,13.033427],[77.687924,13.033236],[77.688082,13.033202],[77.688208,13.033176],[77.688591,13.033039],[77.688856,13.032944],[77.689259,13.032859],[77.690348,13.032662],[77.690855,13.032558],[77.691485,13.031444],[77.691932,13.030752],[77.693118,13.028887],[77.693846,13.027748],[77.694404,13.026725],[77.694537,13.02675],[77.695025,13.026774],[77.695655,13.026829],[77.69609,13.026892],[77.696407,13.026918],[77.696584,13.026932],[77.696615,13.026935],[77.696999,13.026971],[77.697748,13.027058],[77.698473,13.027155],[77.699571,13.027298],[77.699791,13.027326],[77.700492,13.027429],[77.700627,13.027433],[77.701698,13.027438],[77.701684,13.027403],[77.701688,13.027372],[77.701521,13.026445],[77.701331,13.025317],[77.701269,13.024966],[77.701697,13.025141],[77.701885,13.025218],[77.702345,13.025393],[77.702683,13.025525],[77.703275,13.025752],[77.703842,13.025892],[77.704099,13.025952],[77.704404,13.026012],[77.704461,13.026023],[77.70518,13.026152],[77.705446,13.0262],[77.705936,13.026283],[77.705963,13.026287],[77.707012,13.026075],[77.707687,13.025927],[77.707997,13.025876],[77.708021,13.025872],[77.708232,13.025784],[77.709244,13.025269],[77.709901,13.02566],[77.710709,13.026144],[77.711968,13.028218],[77.712067,13.028381],[77.712221,13.028564],[77.714658,13.031456],[77.715076,13.031931],[77.715083,13.031992],[77.715883,13.031856],[77.716011,13.031833],[77.716048,13.031825],[77.716083,13.031819],[77.716091,13.031646],[77.716143,13.031643],[77.717392,13.031557],[77.717341,13.031704],[77.717371,13.032917],[77.717405,13.032922],[77.71746,13.032932],[77.71811,13.033038],[77.718197,13.033057],[77.719583,13.033371],[77.720722,13.033771],[77.721179,13.033846],[77.72152,13.034115],[77.721518,13.034021],[77.721511,13.033807],[77.721625,13.033715],[77.72224,13.033574],[77.723182,13.03333],[77.723427,13.033267],[77.723958,13.033367],[77.724066,13.033318],[77.724229,13.032303],[77.724724,13.032249],[77.724723,13.032166],[77.724845,13.032157],[77.724875,13.032029],[77.7249,13.031487],[77.72483,13.031052],[77.724919,13.03044],[77.724752,13.029957],[77.724637,13.029221],[77.724751,13.028973],[77.724824,13.028813],[77.724861,13.028717],[77.725003,13.028343],[77.725106,13.027841],[77.725117,13.02778],[77.72525,13.027019],[77.725185,13.026489],[77.725181,13.026391],[77.725168,13.025785],[77.725677,13.025755],[77.725609,13.025717],[77.727355,13.023309],[77.729321,13.020371],[77.729438,13.020197],[77.729898,13.019686],[77.730056,13.018734],[77.729769,13.017592],[77.729462,13.016581],[77.729384,13.016323],[77.729377,13.016299],[77.729159,13.015637],[77.729142,13.015588],[77.729098,13.015463],[77.72906,13.015374],[77.7288,13.014757],[77.72866,13.014449],[77.728415,13.01326],[77.72828,13.011799],[77.728011,13.01048],[77.728695,13.010608],[77.729571,13.01071],[77.729571,13.01071],[77.729582,13.010712],[77.730249,13.010755],[77.730482,13.010783],[77.730493,13.010784],[77.730493,13.010784],[77.730933,13.010801],[77.731409,13.010821],[77.732128,13.010768],[77.732441,13.010801],[77.732842,13.010771],[77.733065,13.010667],[77.733894,13.010123],[77.734729,13.010514],[77.735671,13.010933],[77.736232,13.010762],[77.736232,13.010277],[77.736243,13.009769],[77.736248,13.00943],[77.736245,13.009118],[77.736161,13.008368],[77.736131,13.008138],[77.736101,13.007486],[77.736523,13.007829],[77.737203,13.007769],[77.737773,13.00768],[77.738143,13.007577],[77.738476,13.00762],[77.738506,13.007624],[77.738567,13.007645],[77.738896,13.007757],[77.739229,13.007807],[77.73985,13.007954],[77.740325,13.008052],[77.740774,13.008133],[77.740831,13.007871],[77.740941,13.00736],[77.74099,13.007147],[77.743147,13.007074],[77.743274,13.007072],[77.743366,13.007071],[77.743891,13.007137],[77.744252,13.007181],[77.744575,13.007195],[77.745154,13.007171],[77.745562,13.007119],[77.746188,13.007005],[77.746829,13.006821],[77.747168,13.006714],[77.74717,13.00673],[77.747198,13.007007],[77.746971,13.007097],[77.746971,13.007205],[77.74697,13.007296],[77.746971,13.007807],[77.746989,13.0081],[77.747058,13.008561],[77.74707,13.008659],[77.747063,13.00937],[77.747061,13.009547],[77.74706,13.009652],[77.74705,13.010123],[77.746925,13.010438],[77.747034,13.010785],[77.747364,13.011629],[77.747826,13.011567],[77.747968,13.012619],[77.748271,13.012487],[77.749021,13.012163],[77.749324,13.012005],[77.749745,13.011648],[77.749721,13.01151],[77.749971,13.011427],[77.750334,13.011284],[77.750688,13.011364],[77.751249,13.011144],[77.7517,13.0109],[77.752169,13.010852],[77.752249,13.010813],[77.752454,13.01073],[77.752686,13.010658],[77.752839,13.010525],[77.752928,13.010366],[77.753022,13.010283],[77.753179,13.010184],[77.753325,13.010053],[77.75347,13.009913],[77.753651,13.009841],[77.753761,13.00975],[77.753897,13.009626],[77.754116,13.009445],[77.754241,13.009273],[77.754285,13.009178],[77.754362,13.009022],[77.754416,13.008945],[77.754432,13.008921],[77.754523,13.008901],[77.75459,13.0089],[77.754634,13.008892],[77.754673,13.008877],[77.754767,13.008825],[77.754783,13.008814],[77.754814,13.008821],[77.754842,13.008848],[77.754859,13.008878],[77.754911,13.009009],[77.755049,13.009283],[77.755069,13.009345],[77.755075,13.009503],[77.755076,13.009654],[77.755143,13.009876],[77.755195,13.010011],[77.755204,13.010096],[77.755217,13.010162],[77.755229,13.010216],[77.75525,13.010262],[77.755278,13.010304],[77.755302,13.010335],[77.755357,13.010345],[77.755397,13.010345],[77.755468,13.010317],[77.755503,13.010286],[77.755542,13.010255],[77.755585,13.010247],[77.75566,13.010227],[77.756014,13.010072],[77.756202,13.009939],[77.756438,13.009782],[77.75671,13.009563],[77.756975,13.009297],[77.757116,13.00913],[77.757209,13.009012],[77.757354,13.008872],[77.75769,13.008712],[77.758111,13.008575],[77.758299,13.008439],[77.758315,13.008425],[77.75846,13.008305],[77.758597,13.008211],[77.758743,13.008017],[77.758813,13.00794],[77.758892,13.007877],[77.758982,13.007871],[77.759073,13.00787],[77.759192,13.007858],[77.759294,13.007841],[77.759345,13.007813],[77.759396,13.007786],[77.759439,13.007751],[77.759474,13.007711],[77.759514,13.007669],[77.759548,13.007629],[77.759575,13.007571],[77.759595,13.007514],[77.759614,13.007466],[77.759617,13.007424],[77.75962,13.007338],[77.759636,13.006985],[77.759619,13.006853],[77.759529,13.006575],[77.759496,13.006433],[77.759416,13.006298],[77.759377,13.006224],[77.759365,13.006163],[77.759349,13.006087],[77.759359,13.006002],[77.759374,13.005952],[77.759409,13.005897],[77.759455,13.005851],[77.759498,13.005805],[77.759685,13.005675],[77.759919,13.005539],[77.760123,13.005392],[77.760267,13.005272],[77.760458,13.005089],[77.760659,13.004975],[77.760764,13.004907],[77.760845,13.004894],[77.761012,13.004982],[77.761166,13.005011],[77.761335,13.005076],[77.761473,13.00515],[77.761633,13.005182],[77.761779,13.005192],[77.761862,13.005166],[77.761992,13.005119],[77.762106,13.005032],[77.762196,13.004921],[77.762252,13.004859],[77.762291,13.004797],[77.762359,13.004732],[77.762404,13.004676],[77.76246,13.004544],[77.76251,13.004442],[77.76258,13.004333],[77.762666,13.004147],[77.762718,13.003937],[77.762758,13.003829],[77.762827,13.003698],[77.762971,13.003526],[77.76314,13.003299],[77.763226,13.003164],[77.763311,13.003058],[77.763397,13.00295],[77.763472,13.002851],[77.763551,13.00284],[77.763675,13.002882],[77.763706,13.002926],[77.763833,13.003111],[77.764124,13.004082],[77.764711,13.003881],[77.765399,13.003723],[77.765669,13.003661],[77.765873,13.00357],[77.766189,13.003481],[77.767417,13.003246],[77.767497,13.00322],[77.767871,13.003097],[77.768699,13.00269],[77.768868,13.003033],[77.76907,13.003605],[77.769261,13.003978],[77.769397,13.004579],[77.76938,13.004599],[77.769361,13.004618],[77.769287,13.004699],[77.769474,13.005219],[77.76966,13.005906],[77.769655,13.006178],[77.769759,13.006584],[77.769716,13.007668],[77.769709,13.007802],[77.769678,13.008408],[77.769694,13.008732],[77.769701,13.008864],[77.769869,13.008853],[77.769928,13.009136],[77.769912,13.009218],[77.769893,13.009328],[77.769782,13.009365],[77.769933,13.009746],[77.770106,13.010142],[77.770187,13.010606],[77.770293,13.011153],[77.770375,13.011595],[77.770477,13.011714],[77.770511,13.011755],[77.770541,13.01197],[77.770695,13.012341],[77.770716,13.012393],[77.770878,13.012675],[77.771048,13.013193],[77.771092,13.013425],[77.771136,13.013874],[77.771163,13.013983],[77.771171,13.014014],[77.771216,13.014198],[77.77128,13.014473],[77.771505,13.015099],[77.771604,13.015055],[77.772162,13.014896],[77.77226,13.014849],[77.772785,13.014728],[77.773114,13.014642],[77.77316,13.014459],[77.77315,13.014267],[77.773107,13.014049],[77.773098,13.013932],[77.773097,13.013862],[77.773104,13.013768],[77.773175,13.013675],[77.773428,13.013485],[77.773642,13.01342],[77.77388,13.013434],[77.774079,13.013494],[77.774374,13.013491],[77.774414,13.013459],[77.774436,13.013388],[77.774443,13.013302],[77.774443,13.013232],[77.774434,13.013147],[77.774345,13.013015],[77.774055,13.012653],[77.773896,13.01254],[77.773872,13.012517],[77.773855,13.012479],[77.773855,13.012463],[77.773862,13.012415],[77.77387,13.012353],[77.773893,13.012307],[77.773908,13.012189],[77.773915,13.012127],[77.773921,13.011995],[77.77392,13.011871],[77.773911,13.011753],[77.773838,13.011638],[77.773773,13.011537],[77.773741,13.011498],[77.773724,13.011444],[77.773716,13.011374],[77.773714,13.011249],[77.773729,13.011116],[77.773775,13.010999],[77.773854,13.010944],[77.773917,13.01088],[77.773948,13.010834],[77.773979,13.010755],[77.774002,13.010685],[77.774002,13.010646],[77.773953,13.010588],[77.773729,13.010474],[77.773529,13.010406],[77.773401,13.010352],[77.773345,13.010298],[77.773305,13.010267],[77.77328,13.010183],[77.773271,13.010097],[77.77327,13.010003],[77.773277,13.009925],[77.77334,13.009878],[77.773387,13.009807],[77.773402,13.009722],[77.773425,13.009658],[77.773417,13.009604],[77.773312,13.0095],[77.773224,13.009431],[77.773191,13.00933],[77.773174,13.009236],[77.773164,13.009104],[77.773223,13.00862],[77.773252,13.008441],[77.77333,13.008323],[77.773377,13.008199],[77.773407,13.008081],[77.77343,13.007979],[77.773453,13.007909],[77.77346,13.007839],[77.77346,13.007777],[77.773467,13.007675],[77.773481,13.007559],[77.77344,13.007405],[77.773404,13.007048],[77.773377,13.006705],[77.773359,13.006533],[77.773365,13.006378],[77.773412,13.006261],[77.773482,13.00619],[77.773569,13.006157],[77.773776,13.006155],[77.773888,13.00617],[77.773968,13.006215],[77.77408,13.006316],[77.774128,13.006362],[77.774225,13.006432],[77.774296,13.006438],[77.774415,13.006436],[77.774479,13.006421],[77.774558,13.006365],[77.774692,13.006255],[77.774858,13.00616],[77.775016,13.006104],[77.775096,13.006095],[77.77535,13.006092],[77.77547,13.006083],[77.77568,13.006015],[77.775744,13.005992],[77.775815,13.00592],[77.775854,13.005881],[77.775869,13.005803],[77.775892,13.005701],[77.775889,13.005491],[77.775857,13.005414],[77.775799,13.00529],[77.775775,13.005235],[77.775734,13.005127],[77.775674,13.004707],[77.7757,13.0042],[77.775696,13.00397],[77.775619,13.003511],[77.775498,13.003325],[77.775241,13.003102],[77.775049,13.003018],[77.774833,13.002904],[77.774769,13.002881],[77.774682,13.002882],[77.774475,13.002908],[77.7743,13.002933],[77.774022,13.002975],[77.773753,13.00308],[77.773563,13.003152],[77.773499,13.00316],[77.773148,13.003055],[77.773009,13.003006],[77.772769,13.002969],[77.77265,13.002924],[77.772505,13.002801],[77.772464,13.002708],[77.772463,13.002591],[77.77247,13.002521],[77.772524,13.002372],[77.772575,13.002299],[77.772647,13.002236],[77.772751,13.002105],[77.77281,13.001982],[77.772862,13.001944],[77.77293,13.001914],[77.773035,13.001898],[77.773186,13.001897],[77.773627,13.001874],[77.773661,13.001877],[77.773683,13.00184],[77.773709,13.001799],[77.773727,13.001676],[77.773738,13.001614],[77.773741,13.001427],[77.773771,13.001331],[77.773822,13.001249],[77.773894,13.001219],[77.774041,13.001194],[77.77469,13.001155],[77.774765,13.001146],[77.77484,13.001108],[77.774895,13.001034],[77.774991,13.000859],[77.775001,13.000649],[77.774951,13.000543],[77.77487,13.000385],[77.774846,13.000231],[77.774836,13.00006],[77.774832,12.999714],[77.774889,12.999329],[77.774985,12.998829],[77.775005,12.998439],[77.775031,12.997923],[77.77508,12.997555],[77.774959,12.997527],[77.77511,12.997049],[77.774848,12.996005],[77.774826,12.995549],[77.774809,12.99539],[77.7748,12.995308],[77.774508,12.993862],[77.77449,12.99377],[77.774183,12.992003],[77.775209,12.992105],[77.77538,12.992023],[77.776028,12.991712],[77.776114,12.991533],[77.776117,12.991222],[77.775997,12.990659],[77.77615,12.989904],[77.776347,12.989446],[77.776496,12.988315],[77.775942,12.988294],[77.776148,12.98792],[77.776056,12.987065],[77.775904,12.986392],[77.776068,12.985872],[77.776422,12.98554],[77.776662,12.985352],[77.776941,12.985377],[77.777147,12.985165],[77.777006,12.985044],[77.776576,12.984865],[77.776613,12.984589],[77.776542,12.984197],[77.77639,12.983714],[77.776291,12.983243],[77.776248,12.982942],[77.776095,12.982498],[77.775906,12.982329],[77.77565,12.982142],[77.775421,12.981489],[77.775362,12.98141],[77.775203,12.981257],[77.775028,12.98109],[77.774759,12.980702],[77.77472,12.980522],[77.774932,12.980404],[77.775258,12.98024],[77.775402,12.980212],[77.775473,12.980132],[77.775911,12.979932],[77.776038,12.979795],[77.776311,12.979482],[77.776434,12.979365],[77.776529,12.97932],[77.776622,12.979103],[77.776979,12.978738],[77.77716,12.978503],[77.777413,12.978369],[77.777793,12.978592],[77.778358,12.9786],[77.778392,12.978581],[77.778425,12.978562],[77.778519,12.978134],[77.778559,12.978008],[77.778827,12.977163],[77.778625,12.976797],[77.778523,12.976643],[77.778523,12.976643],[77.778244,12.976224],[77.777778,12.976186],[77.777778,12.976186],[77.777669,12.976177],[77.777259,12.976536],[77.777142,12.976483],[77.776976,12.976408],[77.776898,12.976304],[77.776678,12.976018],[77.776675,12.975717],[77.776515,12.97541],[77.776484,12.975352],[77.77616,12.97497],[77.776647,12.974309],[77.776874,12.974002],[77.777684,12.973706],[77.778149,12.973398],[77.778602,12.972939],[77.779243,12.972236],[77.778628,12.971084],[77.778673,12.97048],[77.779211,12.970244],[77.780217,12.970164],[77.780835,12.970319],[77.781149,12.970771],[77.781974,12.970962],[77.782861,12.970993],[77.783262,12.970891],[77.783647,12.970616],[77.783912,12.969357],[77.784361,12.968558],[77.78418,12.966789],[77.784078,12.966563],[77.781848,12.966135],[77.781691,12.966243],[77.781584,12.966381],[77.781453,12.966612],[77.781397,12.966816],[77.781224,12.966957],[77.780535,12.967124],[77.779883,12.967147],[77.779364,12.966969],[77.779069,12.96689],[77.778596,12.966765],[77.778474,12.966994],[77.778656,12.967718],[77.777451,12.968224],[77.777311,12.968168],[77.777221,12.968133],[77.777197,12.96801],[77.777177,12.967898],[77.776479,12.967758],[77.776089,12.967424],[77.775097,12.966881],[77.774826,12.966675],[77.77459,12.96651],[77.774366,12.966497],[77.774031,12.966379],[77.773863,12.966249],[77.7735,12.966093],[77.773287,12.966059],[77.773177,12.966041],[77.773121,12.966031],[77.773087,12.966026],[77.772106,12.965867],[77.771984,12.965923],[77.771495,12.965361],[77.771234,12.965045],[77.771001,12.96472],[77.770689,12.964233],[77.77047,12.963395],[77.770474,12.963337],[77.770517,12.963333],[77.770476,12.963038],[77.770204,12.963056],[77.77018,12.962851],[77.770157,12.962648],[77.770082,12.962455],[77.769979,12.962194],[77.769812,12.96177],[77.769686,12.961732],[77.769187,12.961584],[77.768821,12.96153],[77.768676,12.961431],[77.768229,12.961128],[77.768136,12.960757],[77.768041,12.96053],[77.767962,12.960342],[77.76763,12.960204],[77.767299,12.960066],[77.767164,12.959747],[77.767097,12.959467],[77.766947,12.959461],[77.766993,12.95936],[77.766831,12.9593],[77.766603,12.959216],[77.766307,12.959332],[77.766113,12.959408],[77.765878,12.959504],[77.765465,12.959671],[77.76544,12.959682],[77.765415,12.959691],[77.764881,12.959895],[77.764793,12.959461],[77.764567,12.959491],[77.764423,12.95877],[77.764331,12.957583],[77.764334,12.957264],[77.764339,12.956544],[77.764377,12.956119],[77.764417,12.955997],[77.764479,12.955901],[77.764505,12.95576],[77.764579,12.95563],[77.764564,12.955436],[77.764555,12.955319],[77.764573,12.955088],[77.764469,12.955028],[77.764543,12.954883],[77.764545,12.953792],[77.764548,12.953703],[77.76457,12.952919],[77.764549,12.952158],[77.76456,12.951914],[77.764644,12.951372],[77.764924,12.951078],[77.764919,12.95048],[77.76503,12.950129],[77.765286,12.948762],[77.765364,12.947752],[77.765416,12.947375],[77.765416,12.947375],[77.765467,12.947007],[77.765524,12.946593],[77.76551,12.945403],[77.765341,12.943769],[77.765302,12.943334],[77.765271,12.942906],[77.765253,12.942657],[77.765275,12.94224],[77.765269,12.942208],[77.765269,12.942204],[77.765292,12.941865],[77.765404,12.94016],[77.765424,12.93943],[77.765519,12.93805],[77.765512,12.937016],[77.765632,12.936895],[77.766003,12.935922],[77.766345,12.935018],[77.765688,12.933378],[77.765675,12.932994],[77.765593,12.931803],[77.765512,12.931541],[77.765314,12.930895],[77.765113,12.930237],[77.764651,12.928775],[77.763296,12.928558],[77.76235,12.928389],[77.762319,12.928384],[77.762288,12.92838],[77.761916,12.928237],[77.76133,12.927926],[77.760526,12.927706],[77.759978,12.927525],[77.759335,12.927303],[77.758404,12.927013],[77.757942,12.926829],[77.756989,12.926452],[77.756652,12.926337],[77.756567,12.926321],[77.756537,12.926316],[77.755923,12.926148],[77.755344,12.926015],[77.755194,12.925972],[77.754693,12.925826],[77.754603,12.925814],[77.754285,12.925775],[77.753477,12.925592],[77.752866,12.925428],[77.752216,12.92526],[77.752096,12.924689],[77.751742,12.923347],[77.751571,12.922767],[77.751434,12.922315],[77.751379,12.922083],[77.751354,12.922074],[77.751329,12.922065],[77.750571,12.921799],[77.749733,12.921492],[77.749596,12.921432],[77.748643,12.921071],[77.747502,12.920639],[77.747322,12.920573],[77.746643,12.920326],[77.746099,12.920136],[77.745805,12.92002],[77.745685,12.919902],[77.745555,12.919228],[77.745538,12.919086],[77.745464,12.918807],[77.745433,12.918539],[77.745389,12.918063],[77.745365,12.917589],[77.745279,12.916924],[77.745185,12.916156],[77.745012,12.915315],[77.744822,12.914289],[77.744734,12.913721],[77.743903,12.913795],[77.743183,12.913836],[77.742987,12.913904],[77.742495,12.914038],[77.742358,12.914056],[77.742074,12.914236],[77.741777,12.914262],[77.74151,12.914382],[77.741158,12.914478],[77.740795,12.914546],[77.740617,12.914513],[77.739836,12.914451],[77.739106,12.914332],[77.738945,12.91433],[77.738848,12.914328],[77.738617,12.914305],[77.737743,12.91462],[77.737506,12.914722],[77.73735,12.914642],[77.737284,12.913503],[77.736533,12.913418],[77.736049,12.913376],[77.735483,12.913334],[77.735146,12.91331],[77.734934,12.913292],[77.734773,12.913262],[77.734447,12.913197],[77.734397,12.913336],[77.734361,12.913543],[77.734356,12.913718],[77.734338,12.913819],[77.734361,12.914182],[77.734278,12.914127],[77.732667,12.914182],[77.73207,12.913924],[77.731408,12.914004],[77.731067,12.914092],[77.730496,12.914208],[77.729984,12.914256],[77.729033,12.914368],[77.728709,12.914386],[77.727949,12.91446],[77.727758,12.914445],[77.727569,12.914412],[77.727622,12.914085],[77.727662,12.913841],[77.727643,12.912134],[77.727612,12.910887],[77.727336,12.909845],[77.726926,12.908702],[77.726882,12.908586],[77.726739,12.908028],[77.726277,12.90661],[77.726063,12.906643],[77.72563,12.906725],[77.724856,12.90686],[77.724528,12.906927],[77.723304,12.907273],[77.722809,12.907262],[77.721635,12.907778],[77.721383,12.907861],[77.72127,12.90793],[77.720764,12.908221],[77.720746,12.908893],[77.720399,12.908901],[77.720098,12.908848],[77.719672,12.908754],[77.71971,12.908212],[77.719699,12.908135],[77.719213,12.908137],[77.718762,12.908172],[77.717856,12.908374],[77.717913,12.908872],[77.717774,12.90894],[77.71764,12.908966],[77.717289,12.908746],[77.716971,12.908328],[77.716122,12.907387],[77.715604,12.907494],[77.714593,12.907941],[77.714228,12.908083],[77.713953,12.908078],[77.713388,12.907942],[77.7113,12.907863],[77.709487,12.907943],[77.708353,12.908147],[77.708353,12.908147],[77.707997,12.906449],[77.707092,12.903301],[77.706871,12.902026],[77.706693,12.902081],[77.705786,12.902526],[77.704842,12.902994],[77.704064,12.903394],[77.703984,12.903434],[77.703984,12.903434],[77.70355,12.90365],[77.702847,12.904041],[77.702396,12.903576],[77.700818,12.904032],[77.700356,12.904102],[77.699328,12.904285],[77.697853,12.904545],[77.697659,12.90418],[77.697395,12.904153],[77.696964,12.904068],[77.696784,12.904122],[77.69636,12.904126],[77.696261,12.903994],[77.695877,12.904021],[77.69574,12.90414],[77.69574,12.90414],[77.69563,12.904237],[77.695341,12.90407],[77.694667,12.904191],[77.693935,12.904296],[77.693594,12.904418],[77.693594,12.904418],[77.693394,12.904489],[77.693094,12.904446],[77.692947,12.904256],[77.69281,12.90414],[77.691866,12.90401],[77.691779,12.904001],[77.691527,12.903976],[77.691446,12.904198],[77.691395,12.904391],[77.6912,12.904408],[77.691214,12.904677],[77.691192,12.904914],[77.691081,12.904916],[77.690998,12.905305],[77.690925,12.905525],[77.690179,12.905468],[77.690096,12.905474],[77.689923,12.905487],[77.689923,12.905451],[77.689925,12.905413],[77.689293,12.905454],[77.688255,12.905488],[77.688148,12.905993],[77.688119,12.906132],[77.688076,12.906196],[77.687752,12.906442],[77.687664,12.906483],[77.687368,12.90654],[77.687264,12.906536],[77.687264,12.906536],[77.686848,12.906449],[77.687311,12.904728],[77.68578,12.904433],[77.686319,12.90388],[77.687371,12.903458],[77.687582,12.903338],[77.687447,12.90245],[77.687276,12.902357],[77.686211,12.902368],[77.686211,12.902368],[77.68616,12.902368],[77.685529,12.902184],[77.685323,12.901875],[77.684559,12.901839],[77.684455,12.90187],[77.68422,12.901644],[77.683972,12.901675],[77.683379,12.901578],[77.683013,12.901559],[77.682449,12.901426],[77.682359,12.901346],[77.682219,12.900871],[77.682174,12.900159],[77.682277,12.899959],[77.681968,12.899672],[77.681852,12.899565],[77.680643,12.898512],[77.679778,12.89776],[77.679592,12.897598],[77.678855,12.896573],[77.67846,12.895914],[77.678053,12.895303],[77.677491,12.894691],[77.677244,12.894289],[77.675999,12.893924],[77.674843,12.893729],[77.674073,12.8937],[77.673839,12.893194],[77.673801,12.892907],[77.673751,12.892703],[77.673702,12.892327],[77.673664,12.892031],[77.67358,12.891609],[77.673396,12.890688],[77.673294,12.890204],[77.673174,12.889547],[77.673134,12.889361],[77.673091,12.889157],[77.672896,12.888555],[77.672891,12.888524],[77.672893,12.888507],[77.672895,12.888493],[77.672934,12.888132],[77.6728,12.887692],[77.672676,12.887204],[77.672539,12.88659],[77.672437,12.885986],[77.672328,12.88465],[77.673753,12.88437],[77.674341,12.883833],[77.674224,12.882432],[77.674153,12.88121],[77.67406,12.880175],[77.674029,12.879823],[77.673706,12.879874],[77.672943,12.880006],[77.671982,12.880151],[77.671041,12.880301],[77.671292,12.879981],[77.671621,12.87956],[77.672112,12.878889],[77.672474,12.878457],[77.672714,12.878342],[77.673243,12.878049],[77.673434,12.877659],[77.673574,12.877447],[77.673752,12.877071],[77.673857,12.876743],[77.674024,12.876399],[77.674058,12.876327],[77.674078,12.876286],[77.67426,12.875783],[77.674427,12.875493],[77.674577,12.875354],[77.674613,12.875216],[77.674747,12.874706],[77.674889,12.874163],[77.674971,12.873849],[77.675214,12.872918],[77.675289,12.872633],[77.674295,12.871305],[77.673691,12.87053],[77.672799,12.86929],[77.672893,12.868252],[77.672444,12.868203],[77.672265,12.868204],[77.672086,12.868133],[77.671145,12.867814],[77.67083,12.867664],[77.670224,12.867392],[77.669948,12.867227],[77.669865,12.867176],[77.669488,12.867063],[77.668838,12.866805],[77.667821,12.866407],[77.667086,12.866335],[77.667046,12.866205],[77.666559,12.866215],[77.666456,12.865992],[77.666437,12.865951],[77.66595,12.865193],[77.665571,12.864594],[77.665324,12.864214],[77.665198,12.864054],[77.66499,12.863564],[77.664926,12.863395],[77.664772,12.863202],[77.664668,12.863072],[77.664621,12.862822],[77.664506,12.862373],[77.664007,12.862427],[77.663837,12.861919],[77.663745,12.861019],[77.663644,12.860857],[77.66357,12.86068],[77.663346,12.860532],[77.663042,12.860236],[77.662332,12.859667],[77.662196,12.859571],[77.661842,12.859317],[77.661817,12.859298],[77.661677,12.859213],[77.661246,12.858931],[77.661142,12.858868],[77.661149,12.858774],[77.660537,12.858586],[77.660229,12.858589],[77.65965,12.858615],[77.659307,12.858618],[77.659013,12.858507],[77.658564,12.85837],[77.65766,12.858146],[77.657491,12.858387],[77.657494,12.858324],[77.657551,12.857197],[77.656586,12.856961],[77.656382,12.856998],[77.656443,12.856504],[77.656299,12.856445],[77.656155,12.856425],[77.65595,12.856433],[77.655754,12.856377],[77.655754,12.856318],[77.655796,12.855963],[77.655848,12.855717],[77.655509,12.855525],[77.655284,12.856233],[77.654913,12.856188],[77.654934,12.856053],[77.654446,12.855855],[77.653077,12.855494],[77.653118,12.855317],[77.652946,12.855199],[77.652604,12.854967],[77.65214,12.854829],[77.651816,12.854739],[77.651614,12.854767],[77.651447,12.854666],[77.651336,12.854607],[77.650625,12.854391],[77.650344,12.854394],[77.650394,12.853874],[77.649949,12.853689],[77.64996,12.853178],[77.650008,12.852971],[77.65014,12.852912],[77.650278,12.852183],[77.650077,12.852102],[77.649795,12.852241],[77.649619,12.852928],[77.649215,12.852752],[77.649312,12.852134],[77.648655,12.852106],[77.648206,12.851986],[77.647727,12.851858],[77.647635,12.852201],[77.647595,12.852354],[77.646629,12.852116],[77.646378,12.852142],[77.6462,12.852105],[77.64617,12.852098],[77.646145,12.851874],[77.645754,12.851698],[77.645596,12.851969],[77.645181,12.851839],[77.644905,12.851753],[77.64491,12.852156],[77.64402,12.851647],[77.64313,12.851138],[77.64288,12.851208],[77.642901,12.851404],[77.642958,12.851983],[77.642978,12.852695],[77.643015,12.853694],[77.643012,12.854021],[77.642966,12.854643],[77.642901,12.855931],[77.642907,12.856229],[77.642917,12.857003],[77.642916,12.857055],[77.642894,12.858294],[77.642874,12.858948],[77.642844,12.859434],[77.642828,12.859487],[77.642591,12.860326],[77.642532,12.860511],[77.642474,12.860697],[77.642254,12.861346],[77.642005,12.862324],[77.641867,12.863014],[77.641797,12.863611],[77.641793,12.863654],[77.641732,12.863671],[77.641478,12.863704],[77.641265,12.864271],[77.641224,12.864401],[77.641332,12.865049],[77.640942,12.865049],[77.640517,12.865048],[77.639495,12.864962],[77.638836,12.864906],[77.638694,12.864303],[77.638605,12.863944],[77.638449,12.86331],[77.637394,12.862891],[77.636805,12.863104],[77.636429,12.863129],[77.635769,12.86297],[77.635245,12.862956],[77.634748,12.862746],[77.634622,12.862684],[77.634564,12.862655],[77.634544,12.862635],[77.634526,12.862613],[77.634184,12.862143],[77.634254,12.861924],[77.633226,12.861651],[77.633014,12.861588],[77.632943,12.861566],[77.63224,12.861251],[77.632192,12.861229],[77.631727,12.860876],[77.631644,12.860789],[77.631466,12.860688],[77.631333,12.860576],[77.631168,12.860481],[77.631067,12.860337],[77.630835,12.860129],[77.630638,12.85993],[77.630393,12.858582],[77.629887,12.857993],[77.629063,12.856912],[77.627276,12.857055],[77.626826,12.857166],[77.62645,12.857382],[77.626349,12.85744],[77.625479,12.857551],[77.624557,12.857643],[77.623635,12.857736],[77.622714,12.857828],[77.621399,12.857942],[77.62028,12.857939],[77.61972,12.857973],[77.619507,12.858025],[77.619043,12.858137],[77.618849,12.857828],[77.618908,12.857589],[77.618063,12.85744],[77.617275,12.857494],[77.616795,12.857566],[77.616398,12.855827],[77.615488,12.855294],[77.614975,12.854843],[77.614361,12.854252],[77.614115,12.853895],[77.61359,12.853146],[77.613198,12.85261],[77.61288,12.852017],[77.612702,12.851654],[77.612216,12.851691],[77.611572,12.851491],[77.611107,12.851431],[77.610537,12.851397],[77.609853,12.851332],[77.609176,12.85126],[77.609171,12.851175],[77.609064,12.849594],[77.60904,12.848664],[77.609066,12.848224],[77.609065,12.847539],[77.609139,12.846892],[77.609323,12.846045],[77.608389,12.846687],[77.607186,12.847477],[77.606646,12.847648],[77.605978,12.847848],[77.605466,12.847957],[77.604554,12.848242],[77.603928,12.848352],[77.603456,12.848369],[77.602859,12.848392],[77.602672,12.848398],[77.602172,12.848292],[77.60128,12.848104],[77.600627,12.848101],[77.600487,12.848102],[77.600401,12.847999],[77.600196,12.847939],[77.599914,12.847981],[77.599844,12.847991],[77.599366,12.848045],[77.599183,12.84806],[77.598987,12.848104],[77.598616,12.84825],[77.598228,12.848249],[77.597778,12.848329],[77.597405,12.848464],[77.596893,12.848655],[77.596557,12.848801],[77.596338,12.84886],[77.595617,12.849161],[77.595399,12.848734],[77.595229,12.848402],[77.595182,12.848156],[77.59485,12.84745],[77.594579,12.846521],[77.594524,12.846334],[77.594424,12.845791],[77.594391,12.845612],[77.594321,12.843967],[77.594306,12.843633],[77.594305,12.843486],[77.594219,12.842733],[77.594073,12.841938],[77.594161,12.841932],[77.594119,12.841733],[77.593851,12.840446],[77.593851,12.840446],[77.5935,12.839304],[77.593272,12.838527],[77.592854,12.837119],[77.59232,12.836059],[77.591786,12.834999],[77.591537,12.834512],[77.591212,12.834635],[77.59065,12.834873],[77.590542,12.834911],[77.590536,12.835539],[77.589881,12.835445],[77.589561,12.835448],[77.589251,12.835234],[77.589051,12.835055],[77.58837,12.834561],[77.587489,12.833914],[77.587079,12.833625],[77.586436,12.834034],[77.585284,12.834761],[77.584326,12.835382],[77.583487,12.836057],[77.582668,12.836711],[77.582432,12.836898],[77.581984,12.837104],[77.58178,12.837238],[77.581279,12.83752],[77.580607,12.837838],[77.580434,12.837888],[77.579768,12.838083],[77.579249,12.838166],[77.579037,12.838234],[77.578949,12.838253],[77.578852,12.838263],[77.578787,12.838269],[77.578029,12.838343],[77.576863,12.838468],[77.574286,12.838869],[77.573793,12.838975]]]},"properties":{"_folder":"gba"}}]}