{"type":"FeatureCollection","name":"lowlying_locations","source":"OpenCity resource 8e87a2fc-e014-4c6e-81f1-d5cb4db57a46","description":"BBMP low-lying locations (128 of 129 have valid coordinates)","features":[{"type":"Feature","geometry":{"type":"Point","coordinates":[77.559324,13.071537]},"properties":{"_folder":"lowlying_locations"}},{"type":"Feature","geometry":{"type":"Point","coordinates":[77.573025,13.052073]},"properties":{"_folder":"lowlying_locations"}},{"type":"Feature","geometry":{"type":"Point","coordinates":[77.573364,13.055279]},"properties":{"_folder":"lowlying_locations"}},{"type":"Feature","geometry":{"type":"Point","coordinates":[77.573961,13.048669]},"properties":{"_folder":"lowlying_locations"}},{"type":"Feature","geometry":{"type":"Point","coordinates":[77.579297,13.092327]},"properties":{"_folder":"lowlying_locations"}},{"type":"Feature","geometry":{"type":"Point","coordinates":[77.582441,13.093543]},"properties":{"_folder":"lowlying_locations"}},{"type":"Feature","geometry":{"type":"Point","coordinates":[77.568995,13.107285]},"properties":{"_folder":"lowlying_locations"}},{"type":"Feature","geometry":{"type":"Point","coordinates":[77.576472,13.05401]},"properties":{"_folder":"lowlying_locations"}},{"type":"Feature","geometry":{"type":"Point","coordinates":[77.605114,13.103662]},"properties":{"_folder":"lowlying_locations"}},{"type":"Feature","geometry":{"type":"Point","coordinates":[77.60481,13.048485]},"properties":{"_folder":"lowlying_locations"}},{"type":"Feature","geometry":{"type":"Point","coordinates":[77.615372,13.051319]},"properties":{"_folder":"lowlying_locations"}},{"type":"Feature","geometry":{"type":"Point","coordinates":[77.634656,13.055844]},"properties":{"_folder":"lowlying_locations"}},{"type":"Feature","geometry":{"type":"Point","coordinates":[77.540867,12.990867]},"properties":{"_folder":"lowlying_locations"}},{"type":"Feature","geometry":{"type":"Point","coordinates":[77.552533,12.981399]},"properties":{"_folder":"lowlying_locations"}},{"type":"Feature","geometry":{"type":"Point","coordinates":[77.566055,12.96843]},"properties":{"_folder":"lowlying_locations"}},{"type":"Feature","geometry":{"type":"Point","coordinates":[77.558805,13.028223]},"properties":{"_folder":"lowlying_locations"}},{"type":"Feature","geometry":{"type":"Point","coordinates":[77.568751,12.967097]},"properties":{"_folder":"lowlying_locations"}},{"type":"Feature","geometry":{"type":"Point","coordinates":[77.541546,13.019605]},"properties":{"_folder":"lowlying_locations"}},{"type":"Feature","geometry":{"type":"Point","coordinates":[77.557861,13.022687]},"properties":{"_folder":"lowlying_locations"}},{"type":"Feature","geometry":{"type":"Point","coordinates":[77.555546,12.978705]},"properties":{"_folder":"lowlying_locations"}},{"type":"Feature","geometry":{"type":"Point","coordinates":[77.526379,12.950779]},"properties":{"_folder":"lowlying_locations"}},{"type":"Feature","geometry":{"type":"Point","coordinates":[77.547741,12.991323]},"properties":{"_folder":"lowlying_locations"}},{"type":"Feature","geometry":{"type":"Point","coordinates":[77.543553,12.992941]},"properties":{"_folder":"lowlying_locations"}},{"type":"Feature","geometry":{"type":"Point","coordinates":[77.531387,13.014327]},"properties":{"_folder":"lowlying_locations"}},{"type":"Feature","geometry":{"type":"Point","coordinates":[77.530224,12.965437]},"properties":{"_folder":"lowlying_locations"}},{"type":"Feature","geometry":{"type":"Point","coordinates":[77.603111,12.926952]},"properties":{"_folder":"lowlying_locations"}},{"type":"Feature","geometry":{"type":"Point","coordinates":[77.547572,12.956324]},"properties":{"_folder":"lowlying_locations"}},{"type":"Feature","geometry":{"type":"Point","coordinates":[77.546893,12.952625]},"properties":{"_folder":"lowlying_locations"}},{"type":"Feature","geometry":{"type":"Point","coordinates":[77.559872,12.896674]},"properties":{"_folder":"lowlying_locations"}},{"type":"Feature","geometry":{"type":"Point","coordinates":[77.526379,12.950779]},"properties":{"_folder":"lowlying_locations"}},{"type":"Feature","geometry":{"type":"Point","coordinates":[77.615996,12.915518]},"properties":{"_folder":"lowlying_locations"}},{"type":"Feature","geometry":{"type":"Point","coordinates":[77.628961,12.917843]},"properties":{"_folder":"lowlying_locations"}},{"type":"Feature","geometry":{"type":"Point","coordinates":[77.596505,12.948752]},"properties":{"_folder":"lowlying_locations"}},{"type":"Feature","geometry":{"type":"Point","coordinates":[77.542285,12.953108]},"properties":{"_folder":"lowlying_locations"}},{"type":"Feature","geometry":{"type":"Point","coordinates":[77.538396,12.955497]},"properties":{"_folder":"lowlying_locations"}},{"type":"Feature","geometry":{"type":"Point","coordinates":[77.535384,12.947511]},"properties":{"_folder":"lowlying_locations"}},{"type":"Feature","geometry":{"type":"Point","coordinates":[77.597968,12.948594]},"properties":{"_folder":"lowlying_locations"}},{"type":"Feature","geometry":{"type":"Point","coordinates":[77.62919,12.940539]},"properties":{"_folder":"lowlying_locations"}},{"type":"Feature","geometry":{"type":"Point","coordinates":[77.627296,12.943109]},"properties":{"_folder":"lowlying_locations"}},{"type":"Feature","geometry":{"type":"Point","coordinates":[77.614683,12.949079]},"properties":{"_folder":"lowlying_locations"}},{"type":"Feature","geometry":{"type":"Point","coordinates":[77.499259,12.959254]},"properties":{"_folder":"lowlying_locations"}},{"type":"Feature","geometry":{"type":"Point","coordinates":[77.494171,12.957438]},"properties":{"_folder":"lowlying_locations"}},{"type":"Feature","geometry":{"type":"Point","coordinates":[77.488698,12.956032]},"properties":{"_folder":"lowlying_locations"}},{"type":"Feature","geometry":{"type":"Point","coordinates":[77.514889,12.964788]},"properties":{"_folder":"lowlying_locations"}},{"type":"Feature","geometry":{"type":"Point","coordinates":[77.488522,12.913138]},"properties":{"_folder":"lowlying_locations"}},{"type":"Feature","geometry":{"type":"Point","coordinates":[77.508905,12.927633]},"properties":{"_folder":"lowlying_locations"}},{"type":"Feature","geometry":{"type":"Point","coordinates":[77.509445,12.930472]},"properties":{"_folder":"lowlying_locations"}},{"type":"Feature","geometry":{"type":"Point","coordinates":[77.51902,12.920464]},"properties":{"_folder":"lowlying_locations"}},{"type":"Feature","geometry":{"type":"Point","coordinates":[77.55458,13.034625]},"properties":{"_folder":"lowlying_locations"}},{"type":"Feature","geometry":{"type":"Point","coordinates":[77.490517,13.044566]},"properties":{"_folder":"lowlying_locations"}},{"type":"Feature","geometry":{"type":"Point","coordinates":[77.481959,12.988674]},"properties":{"_folder":"lowlying_locations"}},{"type":"Feature","geometry":{"type":"Point","coordinates":[77.504201,12.989322]},"properties":{"_folder":"lowlying_locations"}},{"type":"Feature","geometry":{"type":"Point","coordinates":[77.526952,13.009711]},"properties":{"_folder":"lowlying_locations"}},{"type":"Feature","geometry":{"type":"Point","coordinates":[77.491958,13.009936]},"properties":{"_folder":"lowlying_locations"}},{"type":"Feature","geometry":{"type":"Point","coordinates":[77.512042,12.98597]},"properties":{"_folder":"lowlying_locations"}},{"type":"Feature","geometry":{"type":"Point","coordinates":[77.493881,13.041586]},"properties":{"_folder":"lowlying_locations"}},{"type":"Feature","geometry":{"type":"Point","coordinates":[77.495142,13.006781]},"properties":{"_folder":"lowlying_locations"}},{"type":"Feature","geometry":{"type":"Point","coordinates":[77.6869,12.96784]},"properties":{"_folder":"lowlying_locations"}},{"type":"Feature","geometry":{"type":"Point","coordinates":[77.686208,12.960494]},"properties":{"_folder":"lowlying_locations"}},{"type":"Feature","geometry":{"type":"Point","coordinates":[77.703029,12.948996]},"properties":{"_folder":"lowlying_locations"}},{"type":"Feature","geometry":{"type":"Point","coordinates":[77.755935,12.971316]},"properties":{"_folder":"lowlying_locations"}},{"type":"Feature","geometry":{"type":"Point","coordinates":[77.675599,12.990081]},"properties":{"_folder":"lowlying_locations"}},{"type":"Feature","geometry":{"type":"Point","coordinates":[77.668829,12.991415]},"properties":{"_folder":"lowlying_locations"}},{"type":"Feature","geometry":{"type":"Point","coordinates":[77.685587,12.985366]},"properties":{"_folder":"lowlying_locations"}},{"type":"Feature","geometry":{"type":"Point","coordinates":[77.719487,12.986618]},"properties":{"_folder":"lowlying_locations"}},{"type":"Feature","geometry":{"type":"Point","coordinates":[77.735077,12.974947]},"properties":{"_folder":"lowlying_locations"}},{"type":"Feature","geometry":{"type":"Point","coordinates":[77.754159,13.001554]},"properties":{"_folder":"lowlying_locations"}},{"type":"Feature","geometry":{"type":"Point","coordinates":[77.759073,12.998829]},"properties":{"_folder":"lowlying_locations"}},{"type":"Feature","geometry":{"type":"Point","coordinates":[77.763192,12.997007]},"properties":{"_folder":"lowlying_locations"}},{"type":"Feature","geometry":{"type":"Point","coordinates":[77.719902,13.023151]},"properties":{"_folder":"lowlying_locations"}},{"type":"Feature","geometry":{"type":"Point","coordinates":[77.706548,13.005344]},"properties":{"_folder":"lowlying_locations"}},{"type":"Feature","geometry":{"type":"Point","coordinates":[77.706673,13.014299]},"properties":{"_folder":"lowlying_locations"}},{"type":"Feature","geometry":{"type":"Point","coordinates":[77.665983,13.017243]},"properties":{"_folder":"lowlying_locations"}},{"type":"Feature","geometry":{"type":"Point","coordinates":[77.675809,13.011501]},"properties":{"_folder":"lowlying_locations"}},{"type":"Feature","geometry":{"type":"Point","coordinates":[77.686649,13.015196]},"properties":{"_folder":"lowlying_locations"}},{"type":"Feature","geometry":{"type":"Point","coordinates":[77.680829,12.980353]},"properties":{"_folder":"lowlying_locations"}},{"type":"Feature","geometry":{"type":"Point","coordinates":[77.644374,13.04011]},"properties":{"_folder":"lowlying_locations"}},{"type":"Feature","geometry":{"type":"Point","coordinates":[77.507982,13.042979]},"properties":{"_folder":"lowlying_locations"}},{"type":"Feature","geometry":{"type":"Point","coordinates":[77.503017,13.064251]},"properties":{"_folder":"lowlying_locations"}},{"type":"Feature","geometry":{"type":"Point","coordinates":[77.510646,13.045112]},"properties":{"_folder":"lowlying_locations"}},{"type":"Feature","geometry":{"type":"Point","coordinates":[77.502142,13.033632]},"properties":{"_folder":"lowlying_locations"}},{"type":"Feature","geometry":{"type":"Point","coordinates":[77.505858,13.026011]},"properties":{"_folder":"lowlying_locations"}},{"type":"Feature","geometry":{"type":"Point","coordinates":[77.613497,13.022821]},"properties":{"_folder":"lowlying_locations"}},{"type":"Feature","geometry":{"type":"Point","coordinates":[77.619731,13.019739]},"properties":{"_folder":"lowlying_locations"}},{"type":"Feature","geometry":{"type":"Point","coordinates":[77.628758,13.009947]},"properties":{"_folder":"lowlying_locations"}},{"type":"Feature","geometry":{"type":"Point","coordinates":[77.601026,13.007065]},"properties":{"_folder":"lowlying_locations"}},{"type":"Feature","geometry":{"type":"Point","coordinates":[77.6026,13.002968]},"properties":{"_folder":"lowlying_locations"}},{"type":"Feature","geometry":{"type":"Point","coordinates":[77.640502,12.988099]},"properties":{"_folder":"lowlying_locations"}},{"type":"Feature","geometry":{"type":"Point","coordinates":[77.640679,12.984318]},"properties":{"_folder":"lowlying_locations"}},{"type":"Feature","geometry":{"type":"Point","coordinates":[77.62667,12.97329]},"properties":{"_folder":"lowlying_locations"}},{"type":"Feature","geometry":{"type":"Point","coordinates":[77.611414,12.987921]},"properties":{"_folder":"lowlying_locations"}},{"type":"Feature","geometry":{"type":"Point","coordinates":[77.601206,12.989232]},"properties":{"_folder":"lowlying_locations"}},{"type":"Feature","geometry":{"type":"Point","coordinates":[77.655992,12.956135]},"properties":{"_folder":"lowlying_locations"}},{"type":"Feature","geometry":{"type":"Point","coordinates":[77.636726,12.936238]},"properties":{"_folder":"lowlying_locations"}},{"type":"Feature","geometry":{"type":"Point","coordinates":[77.599551,12.956486]},"properties":{"_folder":"lowlying_locations"}},{"type":"Feature","geometry":{"type":"Point","coordinates":[77.592226,12.972939]},"properties":{"_folder":"lowlying_locations"}},{"type":"Feature","geometry":{"type":"Point","coordinates":[77.603767,13.033872]},"properties":{"_folder":"lowlying_locations"}},{"type":"Feature","geometry":{"type":"Point","coordinates":[77.603824,12.992651]},"properties":{"_folder":"lowlying_locations"}},{"type":"Feature","geometry":{"type":"Point","coordinates":[77.594439,13.013126]},"properties":{"_folder":"lowlying_locations"}},{"type":"Feature","geometry":{"type":"Point","coordinates":[77.571187,13.031118]},"properties":{"_folder":"lowlying_locations"}},{"type":"Feature","geometry":{"type":"Point","coordinates":[77.615025,13.033684]},"properties":{"_folder":"lowlying_locations"}},{"type":"Feature","geometry":{"type":"Point","coordinates":[77.569786,12.90583]},"properties":{"_folder":"lowlying_locations"}},{"type":"Feature","geometry":{"type":"Point","coordinates":[77.62847,12.898934]},"properties":{"_folder":"lowlying_locations"}},{"type":"Feature","geometry":{"type":"Point","coordinates":[77.628147,12.892687]},"properties":{"_folder":"lowlying_locations"}},{"type":"Feature","geometry":{"type":"Point","coordinates":[77.626956,12.887503]},"properties":{"_folder":"lowlying_locations"}},{"type":"Feature","geometry":{"type":"Point","coordinates":[77.624363,12.887586]},"properties":{"_folder":"lowlying_locations"}},{"type":"Feature","geometry":{"type":"Point","coordinates":[77.629051,12.882051]},"properties":{"_folder":"lowlying_locations"}},{"type":"Feature","geometry":{"type":"Point","coordinates":[77.624941,12.876405]},"properties":{"_folder":"lowlying_locations"}},{"type":"Feature","geometry":{"type":"Point","coordinates":[77.639541,12.869882]},"properties":{"_folder":"lowlying_locations"}},{"type":"Feature","geometry":{"type":"Point","coordinates":[77.63798,12.894441]},"properties":{"_folder":"lowlying_locations"}},{"type":"Feature","geometry":{"type":"Point","coordinates":[77.661159,12.880294]},"properties":{"_folder":"lowlying_locations"}},{"type":"Feature","geometry":{"type":"Point","coordinates":[77.660327,12.873697]},"properties":{"_folder":"lowlying_locations"}},{"type":"Feature","geometry":{"type":"Point","coordinates":[77.657504,12.889427]},"properties":{"_folder":"lowlying_locations"}},{"type":"Feature","geometry":{"type":"Point","coordinates":[77.642364,12.888512]},"properties":{"_folder":"lowlying_locations"}},{"type":"Feature","geometry":{"type":"Point","coordinates":[77.631708,12.890726]},"properties":{"_folder":"lowlying_locations"}},{"type":"Feature","geometry":{"type":"Point","coordinates":[77.637142,12.905057]},"properties":{"_folder":"lowlying_locations"}},{"type":"Feature","geometry":{"type":"Point","coordinates":[77.604285,12.88335]},"properties":{"_folder":"lowlying_locations"}},{"type":"Feature","geometry":{"type":"Point","coordinates":[77.605805,12.877822]},"properties":{"_folder":"lowlying_locations"}},{"type":"Feature","geometry":{"type":"Point","coordinates":[77.591492,12.857844]},"properties":{"_folder":"lowlying_locations"}},{"type":"Feature","geometry":{"type":"Point","coordinates":[77.58492,12.901192]},"properties":{"_folder":"lowlying_locations"}},{"type":"Feature","geometry":{"type":"Point","coordinates":[77.586612,12.901839]},"properties":{"_folder":"lowlying_locations"}},{"type":"Feature","geometry":{"type":"Point","coordinates":[77.57039,12.886308]},"properties":{"_folder":"lowlying_locations"}},{"type":"Feature","geometry":{"type":"Point","coordinates":[77.575201,12.883297]},"properties":{"_folder":"lowlying_locations"}},{"type":"Feature","geometry":{"type":"Point","coordinates":[77.553865,12.902625]},"properties":{"_folder":"lowlying_locations"}},{"type":"Feature","geometry":{"type":"Point","coordinates":[77.545009,12.917834]},"properties":{"_folder":"lowlying_locations"}},{"type":"Feature","geometry":{"type":"Point","coordinates":[77.571272,12.905651]},"properties":{"_folder":"lowlying_locations"}},{"type":"Feature","geometry":{"type":"Point","coordinates":[77.571761,12.90248]},"properties":{"_folder":"lowlying_locations"}},{"type":"Feature","geometry":{"type":"Point","coordinates":[77.545712,12.903358]},"properties":{"_folder":"lowlying_locations"}}]}